<?xml version="1.0" encoding="UTF-8" standalone="yes"?>
<gpx xmlns="http://www.topografix.com/GPX/1/1" version="1.1" creator="outdooractive - http://www.outdooractive.com">
    <metadata>
        <name>1a tappa: Salisburgo- Bischofshofen</name>
        <desc>La prima tappa inizia in mezzo all’affascinante centro storico di Salisburgo, la città di Mozart, e lungo il fiume Salzach conduce verso sud, nelle Alpi Calcaree salisburghesi, toccando diversi monumenti naturali, ripide pareti e gole impressionanti.</desc>
        <author>
            <name>Sabine Zölß, Alpstein Österreich - Ciclovia-Alpe-Adria-Radweg</name>
        </author>
        <link href="http://www.outdooractive.com/r/1550935"/>
        <time>2020-02-11T07:24:55.281+01:00</time>
    </metadata>
    <trk>
        <name>1a tappa: Salisburgo- Bischofshofen</name>
        <desc>La prima tappa inizia in mezzo all’affascinante centro storico di Salisburgo, la città di Mozart, e lungo il fiume Salzach conduce verso sud, nelle Alpi Calcaree salisburghesi, toccando diversi monumenti naturali, ripide pareti e gole impressionanti.</desc>
        <trkseg>
            <trkpt lat="47.798938" lon="13.048513">
                <ele>423.51687</ele>
            </trkpt>
            <trkpt lat="47.79933" lon="13.04878">
                <ele>421.42484</ele>
            </trkpt>
            <trkpt lat="47.79855" lon="13.05111">
                <ele>420.97376</ele>
            </trkpt>
            <trkpt lat="47.79824" lon="13.05185">
                <ele>421.03432</ele>
            </trkpt>
            <trkpt lat="47.79814" lon="13.05189">
                <ele>421.0804</ele>
            </trkpt>
            <trkpt lat="47.79819" lon="13.05208">
                <ele>421.06309</ele>
            </trkpt>
            <trkpt lat="47.79817" lon="13.05216">
                <ele>421.05062</ele>
            </trkpt>
            <trkpt lat="47.797897" lon="13.052797">
                <ele>421.92857</ele>
            </trkpt>
            <trkpt lat="47.798049" lon="13.052941">
                <ele>416.57392</ele>
            </trkpt>
            <trkpt lat="47.797666" lon="13.05404">
                <ele>415.53854</ele>
            </trkpt>
            <trkpt lat="47.797686" lon="13.053754">
                <ele>417.5764</ele>
            </trkpt>
            <trkpt lat="47.797441" lon="13.054189">
                <ele>419.27884</ele>
            </trkpt>
            <trkpt lat="47.796409" lon="13.056449">
                <ele>418.35027</ele>
            </trkpt>
            <trkpt lat="47.794709" lon="13.059805">
                <ele>417.26137</ele>
            </trkpt>
            <trkpt lat="47.794105" lon="13.060647">
                <ele>421.37222</ele>
            </trkpt>
            <trkpt lat="47.793381" lon="13.061983">
                <ele>421.22193</ele>
            </trkpt>
            <trkpt lat="47.79101" lon="13.066197">
                <ele>422.45229</ele>
            </trkpt>
            <trkpt lat="47.789164" lon="13.068975">
                <ele>422.8706</ele>
            </trkpt>
            <trkpt lat="47.78695" lon="13.071932">
                <ele>421.13129</ele>
            </trkpt>
            <trkpt lat="47.784467" lon="13.074669">
                <ele>421.84491</ele>
            </trkpt>
            <trkpt lat="47.782947" lon="13.075436">
                <ele>421.85891</ele>
            </trkpt>
            <trkpt lat="47.777438" lon="13.075105">
                <ele>421.57524</ele>
            </trkpt>
            <trkpt lat="47.774124" lon="13.074678">
                <ele>423.59006</ele>
            </trkpt>
            <trkpt lat="47.772703" lon="13.074402">
                <ele>424.70645</ele>
            </trkpt>
            <trkpt lat="47.77211" lon="13.074361">
                <ele>424.66527</ele>
            </trkpt>
            <trkpt lat="47.771371" lon="13.074216">
                <ele>424.79117</ele>
            </trkpt>
            <trkpt lat="47.770665" lon="13.074026">
                <ele>425.11321</ele>
            </trkpt>
            <trkpt lat="47.770139" lon="13.073929">
                <ele>425.83389</ele>
            </trkpt>
            <trkpt lat="47.769229" lon="13.073849">
                <ele>425.93465</ele>
            </trkpt>
            <trkpt lat="47.768082" lon="13.073831">
                <ele>426.68856</ele>
            </trkpt>
            <trkpt lat="47.767271" lon="13.073923">
                <ele>426.08451</ele>
            </trkpt>
            <trkpt lat="47.767007" lon="13.074193">
                <ele>424.50042</ele>
            </trkpt>
            <trkpt lat="47.764608" lon="13.074852">
                <ele>426.77535</ele>
            </trkpt>
            <trkpt lat="47.759709" lon="13.076534">
                <ele>427.11975</ele>
            </trkpt>
            <trkpt lat="47.757498" lon="13.077481">
                <ele>427.31064</ele>
            </trkpt>
            <trkpt lat="47.755728" lon="13.078283">
                <ele>428.14742</ele>
            </trkpt>
            <trkpt lat="47.752053" lon="13.079012">
                <ele>428.39312</ele>
            </trkpt>
            <trkpt lat="47.748242" lon="13.080165">
                <ele>420.86389</ele>
            </trkpt>
            <trkpt lat="47.746763" lon="13.079935">
                <ele>429.41265</ele>
            </trkpt>
            <trkpt lat="47.74385" lon="13.080364">
                <ele>429.77096</ele>
            </trkpt>
            <trkpt lat="47.742482" lon="13.080632">
                <ele>430.00102</ele>
            </trkpt>
            <trkpt lat="47.741335" lon="13.080726">
                <ele>431.23948</ele>
            </trkpt>
            <trkpt lat="47.740184" lon="13.080937">
                <ele>431.14247</ele>
            </trkpt>
            <trkpt lat="47.737872" lon="13.0813">
                <ele>430.46436</ele>
            </trkpt>
            <trkpt lat="47.736622" lon="13.081543">
                <ele>429.56942</ele>
            </trkpt>
            <trkpt lat="47.734149" lon="13.081799">
                <ele>431.72236</ele>
            </trkpt>
            <trkpt lat="47.73271" lon="13.08178">
                <ele>434.98813</ele>
            </trkpt>
            <trkpt lat="47.732427" lon="13.081884">
                <ele>434.93369</ele>
            </trkpt>
            <trkpt lat="47.732146" lon="13.081932">
                <ele>434.70442</ele>
            </trkpt>
            <trkpt lat="47.7318" lon="13.081668">
                <ele>440.70902</ele>
            </trkpt>
            <trkpt lat="47.731603" lon="13.081376">
                <ele>435.77947</ele>
            </trkpt>
            <trkpt lat="47.731404" lon="13.081159">
                <ele>434.65634</ele>
            </trkpt>
            <trkpt lat="47.730927" lon="13.081534">
                <ele>434.3413</ele>
            </trkpt>
            <trkpt lat="47.731093" lon="13.08205">
                <ele>434.58735</ele>
            </trkpt>
            <trkpt lat="47.729982" lon="13.082196">
                <ele>433.83542</ele>
            </trkpt>
            <trkpt lat="47.728827" lon="13.082244">
                <ele>434.10583</ele>
            </trkpt>
            <trkpt lat="47.72377" lon="13.082192">
                <ele>434.56565</ele>
            </trkpt>
            <trkpt lat="47.721756" lon="13.082318">
                <ele>433.98727</ele>
            </trkpt>
            <trkpt lat="47.720627" lon="13.082234">
                <ele>434.2678</ele>
            </trkpt>
            <trkpt lat="47.719244" lon="13.082029">
                <ele>434.15718</ele>
            </trkpt>
            <trkpt lat="47.717631" lon="13.081714">
                <ele>434.10701</ele>
            </trkpt>
            <trkpt lat="47.716076" lon="13.081001">
                <ele>435.06482</ele>
            </trkpt>
            <trkpt lat="47.714655" lon="13.080223">
                <ele>436.24477</ele>
            </trkpt>
            <trkpt lat="47.71272" lon="13.079232">
                <ele>436.97376</ele>
            </trkpt>
            <trkpt lat="47.711469" lon="13.078627">
                <ele>437.4068</ele>
            </trkpt>
            <trkpt lat="47.711587" lon="13.078722">
                <ele>436.85962</ele>
            </trkpt>
            <trkpt lat="47.710188" lon="13.078201">
                <ele>438.28217</ele>
            </trkpt>
            <trkpt lat="47.7095" lon="13.078005">
                <ele>438.53691</ele>
            </trkpt>
            <trkpt lat="47.708253" lon="13.077564">
                <ele>438.48586</ele>
            </trkpt>
            <trkpt lat="47.707584" lon="13.07735">
                <ele>437.67512</ele>
            </trkpt>
            <trkpt lat="47.706603" lon="13.076875">
                <ele>439.00684</ele>
            </trkpt>
            <trkpt lat="47.705828" lon="13.076595">
                <ele>439.33878</ele>
            </trkpt>
            <trkpt lat="47.704828" lon="13.076416">
                <ele>439.61166</ele>
            </trkpt>
            <trkpt lat="47.703094" lon="13.076131">
                <ele>438.87508</ele>
            </trkpt>
            <trkpt lat="47.702272" lon="13.076159">
                <ele>439.46641</ele>
            </trkpt>
            <trkpt lat="47.701549" lon="13.076417">
                <ele>438.44236</ele>
            </trkpt>
            <trkpt lat="47.70002" lon="13.077384">
                <ele>437.70908</ele>
            </trkpt>
            <trkpt lat="47.698532" lon="13.078709">
                <ele>438.60013</ele>
            </trkpt>
            <trkpt lat="47.697634" lon="13.079458">
                <ele>438.97574</ele>
            </trkpt>
            <trkpt lat="47.697045" lon="13.080103">
                <ele>436.56812</ele>
            </trkpt>
            <trkpt lat="47.695755" lon="13.080969">
                <ele>439.66352</ele>
            </trkpt>
            <trkpt lat="47.694743" lon="13.081608">
                <ele>439.76888</ele>
            </trkpt>
            <trkpt lat="47.694063" lon="13.081989">
                <ele>440.07486</ele>
            </trkpt>
            <trkpt lat="47.693091" lon="13.082278">
                <ele>441.44685</ele>
            </trkpt>
            <trkpt lat="47.693082" lon="13.082242">
                <ele>441.74175</ele>
            </trkpt>
            <trkpt lat="47.692502" lon="13.082479">
                <ele>441.23486</ele>
            </trkpt>
            <trkpt lat="47.691044" lon="13.083354">
                <ele>440.78101</ele>
            </trkpt>
            <trkpt lat="47.689175" lon="13.084751">
                <ele>442.92071</ele>
            </trkpt>
            <trkpt lat="47.687251" lon="13.086812">
                <ele>443.64238</ele>
            </trkpt>
            <trkpt lat="47.686937" lon="13.087202">
                <ele>444.29082</ele>
            </trkpt>
            <trkpt lat="47.687019" lon="13.087116">
                <ele>443.91268</ele>
            </trkpt>
            <trkpt lat="47.686362" lon="13.087888">
                <ele>442.31376</ele>
            </trkpt>
            <trkpt lat="47.68509" lon="13.089303">
                <ele>442.86663</ele>
            </trkpt>
            <trkpt lat="47.684498" lon="13.090416">
                <ele>442.35818</ele>
            </trkpt>
            <trkpt lat="47.684219" lon="13.090906">
                <ele>442.97078</ele>
            </trkpt>
            <trkpt lat="47.683895" lon="13.090899">
                <ele>444.07712</ele>
            </trkpt>
            <trkpt lat="47.683592" lon="13.091895">
                <ele>444.08546</ele>
            </trkpt>
            <trkpt lat="47.683395" lon="13.092674">
                <ele>444.44999</ele>
            </trkpt>
            <trkpt lat="47.683295" lon="13.093536">
                <ele>444.07071</ele>
            </trkpt>
            <trkpt lat="47.683098" lon="13.094389">
                <ele>444.5279</ele>
            </trkpt>
            <trkpt lat="47.682993" lon="13.095041">
                <ele>444.6334</ele>
            </trkpt>
            <trkpt lat="47.683023" lon="13.095564">
                <ele>444.64514</ele>
            </trkpt>
            <trkpt lat="47.682805" lon="13.095994">
                <ele>444.09759</ele>
            </trkpt>
            <trkpt lat="47.682815" lon="13.095989">
                <ele>443.91159</ele>
            </trkpt>
            <trkpt lat="47.682167" lon="13.094538">
                <ele>445.66872</ele>
            </trkpt>
            <trkpt lat="47.681619" lon="13.094701">
                <ele>447.18913</ele>
            </trkpt>
            <trkpt lat="47.681765" lon="13.095645">
                <ele>446.19491</ele>
            </trkpt>
            <trkpt lat="47.681761" lon="13.095885">
                <ele>445.47316</ele>
            </trkpt>
            <trkpt lat="47.681527" lon="13.095717">
                <ele>445.97354</ele>
            </trkpt>
            <trkpt lat="47.680729" lon="13.095719">
                <ele>444.01419</ele>
            </trkpt>
            <trkpt lat="47.680639" lon="13.09578">
                <ele>444.89853</ele>
            </trkpt>
            <trkpt lat="47.680762" lon="13.096439">
                <ele>445.88358</ele>
            </trkpt>
            <trkpt lat="47.680847" lon="13.097097">
                <ele>444.89285</ele>
            </trkpt>
            <trkpt lat="47.680466" lon="13.097194">
                <ele>445.16075</ele>
            </trkpt>
            <trkpt lat="47.680495" lon="13.097203">
                <ele>445.17267</ele>
            </trkpt>
            <trkpt lat="47.679134" lon="13.097764">
                <ele>444.71402</ele>
            </trkpt>
            <trkpt lat="47.678801" lon="13.097881">
                <ele>445.45667</ele>
            </trkpt>
            <trkpt lat="47.678617" lon="13.097903">
                <ele>445.08775</ele>
            </trkpt>
            <trkpt lat="47.67763" lon="13.09838">
                <ele>445.51727</ele>
            </trkpt>
            <trkpt lat="47.677088" lon="13.098546">
                <ele>445.87594</ele>
            </trkpt>
            <trkpt lat="47.676169" lon="13.099028">
                <ele>445.59457</ele>
            </trkpt>
            <trkpt lat="47.675154" lon="13.099939">
                <ele>445.97787</ele>
            </trkpt>
            <trkpt lat="47.674622" lon="13.100594">
                <ele>446.97355</ele>
            </trkpt>
            <trkpt lat="47.673992" lon="13.100602">
                <ele>449.23802</ele>
            </trkpt>
            <trkpt lat="47.673346" lon="13.101162">
                <ele>450.17785</ele>
            </trkpt>
            <trkpt lat="47.672071" lon="13.102446">
                <ele>451.12166</ele>
            </trkpt>
            <trkpt lat="47.671154" lon="13.103436">
                <ele>452.33712</ele>
            </trkpt>
            <trkpt lat="47.670794" lon="13.104171">
                <ele>449.17776</ele>
            </trkpt>
            <trkpt lat="47.670412" lon="13.105123">
                <ele>449.47397</ele>
            </trkpt>
            <trkpt lat="47.670056" lon="13.10618">
                <ele>449.86601</ele>
            </trkpt>
            <trkpt lat="47.669466" lon="13.106907">
                <ele>449.22574</ele>
            </trkpt>
            <trkpt lat="47.668233" lon="13.107931">
                <ele>451.33436</ele>
            </trkpt>
            <trkpt lat="47.667754" lon="13.108419">
                <ele>452.5387</ele>
            </trkpt>
            <trkpt lat="47.667473" lon="13.108626">
                <ele>452.46309</ele>
            </trkpt>
            <trkpt lat="47.667327" lon="13.109082">
                <ele>451.01039</ele>
            </trkpt>
            <trkpt lat="47.667176" lon="13.109202">
                <ele>452.56293</ele>
            </trkpt>
            <trkpt lat="47.666393" lon="13.109728">
                <ele>455.51501</ele>
            </trkpt>
            <trkpt lat="47.666164" lon="13.110073">
                <ele>455.50656</ele>
            </trkpt>
            <trkpt lat="47.66585" lon="13.110167">
                <ele>456.7749</ele>
            </trkpt>
            <trkpt lat="47.665229" lon="13.110711">
                <ele>461.32252</ele>
            </trkpt>
            <trkpt lat="47.665002" lon="13.111136">
                <ele>461.46575</ele>
            </trkpt>
            <trkpt lat="47.664767" lon="13.11218">
                <ele>464.94305</ele>
            </trkpt>
            <trkpt lat="47.664427" lon="13.112566">
                <ele>466.84651</ele>
            </trkpt>
            <trkpt lat="47.664062" lon="13.113624">
                <ele>467.64297</ele>
            </trkpt>
            <trkpt lat="47.663857" lon="13.114401">
                <ele>466.36306</ele>
            </trkpt>
            <trkpt lat="47.663528" lon="13.114918">
                <ele>466.25147</ele>
            </trkpt>
            <trkpt lat="47.66279" lon="13.115068">
                <ele>474.66003</ele>
            </trkpt>
            <trkpt lat="47.662432" lon="13.115193">
                <ele>476.92003</ele>
            </trkpt>
            <trkpt lat="47.661781" lon="13.115259">
                <ele>482.01684</ele>
            </trkpt>
            <trkpt lat="47.661016" lon="13.11512">
                <ele>487.45532</ele>
            </trkpt>
            <trkpt lat="47.660469" lon="13.114883">
                <ele>492.7145</ele>
            </trkpt>
            <trkpt lat="47.660144" lon="13.114923">
                <ele>492.7574</ele>
            </trkpt>
            <trkpt lat="47.659551" lon="13.114951">
                <ele>489.05149</ele>
            </trkpt>
            <trkpt lat="47.659143" lon="13.114877">
                <ele>488.581</ele>
            </trkpt>
            <trkpt lat="47.658763" lon="13.114936">
                <ele>486.08854</ele>
            </trkpt>
            <trkpt lat="47.658488" lon="13.115118">
                <ele>488.30537</ele>
            </trkpt>
            <trkpt lat="47.658113" lon="13.115445">
                <ele>487.58526</ele>
            </trkpt>
            <trkpt lat="47.657493" lon="13.11564">
                <ele>487.40197</ele>
            </trkpt>
            <trkpt lat="47.656927" lon="13.115959">
                <ele>481.21395</ele>
            </trkpt>
            <trkpt lat="47.656227" lon="13.116979">
                <ele>473.90385</ele>
            </trkpt>
            <trkpt lat="47.656055" lon="13.117455">
                <ele>472.05606</ele>
            </trkpt>
            <trkpt lat="47.655931" lon="13.118049">
                <ele>468.70777</ele>
            </trkpt>
            <trkpt lat="47.655576" lon="13.118422">
                <ele>467.20889</ele>
            </trkpt>
            <trkpt lat="47.654868" lon="13.118787">
                <ele>463.43864</ele>
            </trkpt>
            <trkpt lat="47.653836" lon="13.119407">
                <ele>465.93047</ele>
            </trkpt>
            <trkpt lat="47.653181" lon="13.120056">
                <ele>464.32457</ele>
            </trkpt>
            <trkpt lat="47.652872" lon="13.120211">
                <ele>462.94632</ele>
            </trkpt>
            <trkpt lat="47.652349" lon="13.120364">
                <ele>460.5337</ele>
            </trkpt>
            <trkpt lat="47.652058" lon="13.120531">
                <ele>461.6541</ele>
            </trkpt>
            <trkpt lat="47.651734" lon="13.120783">
                <ele>463.69253</ele>
            </trkpt>
            <trkpt lat="47.651497" lon="13.120914">
                <ele>463.71527</ele>
            </trkpt>
            <trkpt lat="47.650947" lon="13.120989">
                <ele>463.41926</ele>
            </trkpt>
            <trkpt lat="47.650341" lon="13.120907">
                <ele>465.72748</ele>
            </trkpt>
            <trkpt lat="47.650035" lon="13.120987">
                <ele>465.50577</ele>
            </trkpt>
            <trkpt lat="47.649517" lon="13.12085">
                <ele>465.65615</ele>
            </trkpt>
            <trkpt lat="47.647992" lon="13.120914">
                <ele>461.86822</ele>
            </trkpt>
            <trkpt lat="47.647433" lon="13.121004">
                <ele>462.75504</ele>
            </trkpt>
            <trkpt lat="47.646879" lon="13.121008">
                <ele>459.55745</ele>
            </trkpt>
            <trkpt lat="47.646699" lon="13.121262">
                <ele>457.30575</ele>
            </trkpt>
            <trkpt lat="47.646409" lon="13.121511">
                <ele>457.45017</ele>
            </trkpt>
            <trkpt lat="47.645413" lon="13.122761">
                <ele>457.66418</ele>
            </trkpt>
            <trkpt lat="47.645142" lon="13.122779">
                <ele>461.31582</ele>
            </trkpt>
            <trkpt lat="47.644941" lon="13.122723">
                <ele>466.24366</ele>
            </trkpt>
            <trkpt lat="47.644742" lon="13.122772">
                <ele>465.17844</ele>
            </trkpt>
            <trkpt lat="47.644504" lon="13.122624">
                <ele>465.98315</ele>
            </trkpt>
            <trkpt lat="47.64432" lon="13.122663">
                <ele>464.86239</ele>
            </trkpt>
            <trkpt lat="47.64409" lon="13.122582">
                <ele>463.41334</ele>
            </trkpt>
            <trkpt lat="47.643357" lon="13.122387">
                <ele>457.93756</ele>
            </trkpt>
            <trkpt lat="47.642896" lon="13.12229">
                <ele>460.01805</ele>
            </trkpt>
            <trkpt lat="47.642211" lon="13.122563">
                <ele>458.2593</ele>
            </trkpt>
            <trkpt lat="47.64149" lon="13.123012">
                <ele>457.83509</ele>
            </trkpt>
            <trkpt lat="47.641102" lon="13.123659">
                <ele>457.08318</ele>
            </trkpt>
            <trkpt lat="47.640929" lon="13.124331">
                <ele>456.26157</ele>
            </trkpt>
            <trkpt lat="47.640256" lon="13.125865">
                <ele>457.13586</ele>
            </trkpt>
            <trkpt lat="47.640145" lon="13.126175">
                <ele>457.13185</ele>
            </trkpt>
            <trkpt lat="47.639944" lon="13.126498">
                <ele>457.26328</ele>
            </trkpt>
            <trkpt lat="47.639511" lon="13.127334">
                <ele>457.43905</ele>
            </trkpt>
            <trkpt lat="47.639201" lon="13.127829">
                <ele>457.30781</ele>
            </trkpt>
            <trkpt lat="47.638853" lon="13.127874">
                <ele>460.07208</ele>
            </trkpt>
            <trkpt lat="47.638545" lon="13.127637">
                <ele>463.86109</ele>
            </trkpt>
            <trkpt lat="47.638292" lon="13.127023">
                <ele>468.5204</ele>
            </trkpt>
            <trkpt lat="47.638106" lon="13.127134">
                <ele>469.12589</ele>
            </trkpt>
            <trkpt lat="47.637989" lon="13.127324">
                <ele>470.98853</ele>
            </trkpt>
            <trkpt lat="47.637884" lon="13.127585">
                <ele>474.3834</ele>
            </trkpt>
            <trkpt lat="47.637513" lon="13.127714">
                <ele>477.99717</ele>
            </trkpt>
            <trkpt lat="47.636923" lon="13.128046">
                <ele>481.04366</ele>
            </trkpt>
            <trkpt lat="47.63654" lon="13.128194">
                <ele>483.41703</ele>
            </trkpt>
            <trkpt lat="47.635957" lon="13.128485">
                <ele>484.22579</ele>
            </trkpt>
            <trkpt lat="47.634297" lon="13.12903">
                <ele>484.12506</ele>
            </trkpt>
            <trkpt lat="47.634001" lon="13.129217">
                <ele>480.89233</ele>
            </trkpt>
            <trkpt lat="47.633735" lon="13.129732">
                <ele>476.75287</ele>
            </trkpt>
            <trkpt lat="47.633373" lon="13.130124">
                <ele>474.61028</ele>
            </trkpt>
            <trkpt lat="47.63251" lon="13.130483">
                <ele>475.53221</ele>
            </trkpt>
            <trkpt lat="47.631083" lon="13.130925">
                <ele>474.00535</ele>
            </trkpt>
            <trkpt lat="47.631068" lon="13.130863">
                <ele>473.83203</ele>
            </trkpt>
            <trkpt lat="47.630973" lon="13.131896">
                <ele>466.96284</ele>
            </trkpt>
            <trkpt lat="47.630788" lon="13.132687">
                <ele>467.96625</ele>
            </trkpt>
            <trkpt lat="47.630889" lon="13.133348">
                <ele>463.02309</ele>
            </trkpt>
            <trkpt lat="47.630822" lon="13.133716">
                <ele>461.39818</ele>
            </trkpt>
            <trkpt lat="47.630697" lon="13.134018">
                <ele>461.80666</ele>
            </trkpt>
            <trkpt lat="47.630662" lon="13.134435">
                <ele>462.00446</ele>
            </trkpt>
            <trkpt lat="47.629139" lon="13.135912">
                <ele>462.73021</ele>
            </trkpt>
            <trkpt lat="47.626916" lon="13.137628">
                <ele>463.34341</ele>
            </trkpt>
            <trkpt lat="47.625298" lon="13.137931">
                <ele>463.85573</ele>
            </trkpt>
            <trkpt lat="47.625117" lon="13.138">
                <ele>463.84844</ele>
            </trkpt>
            <trkpt lat="47.624435" lon="13.137838">
                <ele>464.16671</ele>
            </trkpt>
            <trkpt lat="47.623705" lon="13.137951">
                <ele>464.12451</ele>
            </trkpt>
            <trkpt lat="47.623024" lon="13.13841">
                <ele>462.37899</ele>
            </trkpt>
            <trkpt lat="47.622565" lon="13.138663">
                <ele>462.72338</ele>
            </trkpt>
            <trkpt lat="47.621657" lon="13.139019">
                <ele>462.33551</ele>
            </trkpt>
            <trkpt lat="47.621164" lon="13.139029">
                <ele>462.31913</ele>
            </trkpt>
            <trkpt lat="47.620871" lon="13.139069">
                <ele>462.1245</ele>
            </trkpt>
            <trkpt lat="47.619642" lon="13.139289">
                <ele>462.72365</ele>
            </trkpt>
            <trkpt lat="47.618777" lon="13.139506">
                <ele>462.29018</ele>
            </trkpt>
            <trkpt lat="47.618555" lon="13.139618">
                <ele>462.16692</ele>
            </trkpt>
            <trkpt lat="47.618077" lon="13.140038">
                <ele>462.24747</ele>
            </trkpt>
            <trkpt lat="47.617795" lon="13.140245">
                <ele>462.18827</ele>
            </trkpt>
            <trkpt lat="47.617554" lon="13.140491">
                <ele>462.36187</ele>
            </trkpt>
            <trkpt lat="47.617256" lon="13.140644">
                <ele>462.41764</ele>
            </trkpt>
            <trkpt lat="47.616997" lon="13.141133">
                <ele>461.78482</ele>
            </trkpt>
            <trkpt lat="47.616817" lon="13.141591">
                <ele>462.73443</ele>
            </trkpt>
            <trkpt lat="47.616552" lon="13.14188">
                <ele>462.88971</ele>
            </trkpt>
            <trkpt lat="47.615876" lon="13.142072">
                <ele>463.99366</ele>
            </trkpt>
            <trkpt lat="47.615614" lon="13.142187">
                <ele>464.18834</ele>
            </trkpt>
            <trkpt lat="47.615016" lon="13.142687">
                <ele>464.63981</ele>
            </trkpt>
            <trkpt lat="47.614648" lon="13.143081">
                <ele>464.92066</ele>
            </trkpt>
            <trkpt lat="47.614094" lon="13.143426">
                <ele>466.10385</ele>
            </trkpt>
            <trkpt lat="47.613518" lon="13.143161">
                <ele>467.48036</ele>
            </trkpt>
            <trkpt lat="47.613004" lon="13.142856">
                <ele>469.28103</ele>
            </trkpt>
            <trkpt lat="47.612641" lon="13.142542">
                <ele>470.11641</ele>
            </trkpt>
            <trkpt lat="47.612293" lon="13.142086">
                <ele>471.40451</ele>
            </trkpt>
            <trkpt lat="47.611683" lon="13.141429">
                <ele>475.35193</ele>
            </trkpt>
            <trkpt lat="47.611682" lon="13.141261">
                <ele>474.66553</ele>
            </trkpt>
            <trkpt lat="47.611316" lon="13.140811">
                <ele>479.88083</ele>
            </trkpt>
            <trkpt lat="47.610881" lon="13.140516">
                <ele>485.8795</ele>
            </trkpt>
            <trkpt lat="47.610462" lon="13.140492">
                <ele>489.91153</ele>
            </trkpt>
            <trkpt lat="47.609739" lon="13.140903">
                <ele>490.04797</ele>
            </trkpt>
            <trkpt lat="47.608276" lon="13.141995">
                <ele>487.8477</ele>
            </trkpt>
            <trkpt lat="47.607624" lon="13.142635">
                <ele>485.64446</ele>
            </trkpt>
            <trkpt lat="47.607037" lon="13.143123">
                <ele>484.22825</ele>
            </trkpt>
            <trkpt lat="47.60671" lon="13.143226">
                <ele>484.4872</ele>
            </trkpt>
            <trkpt lat="47.605796" lon="13.143032">
                <ele>488.11374</ele>
            </trkpt>
            <trkpt lat="47.60505" lon="13.142591">
                <ele>488.20367</ele>
            </trkpt>
            <trkpt lat="47.604145" lon="13.142297">
                <ele>489.41962</ele>
            </trkpt>
            <trkpt lat="47.603731" lon="13.142563">
                <ele>485.95119</ele>
            </trkpt>
            <trkpt lat="47.603007" lon="13.143445">
                <ele>479.32051</ele>
            </trkpt>
            <trkpt lat="47.602623" lon="13.143807">
                <ele>479.40874</ele>
            </trkpt>
            <trkpt lat="47.602162" lon="13.144445">
                <ele>479.63705</ele>
            </trkpt>
            <trkpt lat="47.601816" lon="13.144418">
                <ele>479.21932</ele>
            </trkpt>
            <trkpt lat="47.601819" lon="13.145144">
                <ele>477.98968</ele>
            </trkpt>
            <trkpt lat="47.601664" lon="13.145833">
                <ele>476.92854</ele>
            </trkpt>
            <trkpt lat="47.602051" lon="13.147411">
                <ele>475.79207</ele>
            </trkpt>
            <trkpt lat="47.602226" lon="13.14825">
                <ele>474.56545</ele>
            </trkpt>
            <trkpt lat="47.602097" lon="13.148567">
                <ele>473.25951</ele>
            </trkpt>
            <trkpt lat="47.601747" lon="13.148548">
                <ele>473.32085</ele>
            </trkpt>
            <trkpt lat="47.60113" lon="13.148649">
                <ele>473.16004</ele>
            </trkpt>
            <trkpt lat="47.600761" lon="13.149039">
                <ele>470.60701</ele>
            </trkpt>
            <trkpt lat="47.600232" lon="13.149306">
                <ele>469.72525</ele>
            </trkpt>
            <trkpt lat="47.599749" lon="13.149706">
                <ele>468.26815</ele>
            </trkpt>
            <trkpt lat="47.59942" lon="13.149916">
                <ele>467.62882</ele>
            </trkpt>
            <trkpt lat="47.599087" lon="13.150091">
                <ele>467.3374</ele>
            </trkpt>
            <trkpt lat="47.598984" lon="13.150211">
                <ele>467.30639</ele>
            </trkpt>
            <trkpt lat="47.599041" lon="13.151123">
                <ele>467.30044</ele>
            </trkpt>
            <trkpt lat="47.599064" lon="13.151204">
                <ele>467.18777</ele>
            </trkpt>
            <trkpt lat="47.598961" lon="13.151704">
                <ele>467.9833</ele>
            </trkpt>
            <trkpt lat="47.598498" lon="13.153097">
                <ele>468.22968</ele>
            </trkpt>
            <trkpt lat="47.598141" lon="13.153779">
                <ele>468.42416</ele>
            </trkpt>
            <trkpt lat="47.597879" lon="13.154047">
                <ele>468.52657</ele>
            </trkpt>
            <trkpt lat="47.597595" lon="13.154632">
                <ele>468.16387</ele>
            </trkpt>
            <trkpt lat="47.597422" lon="13.155212">
                <ele>467.73374</ele>
            </trkpt>
            <trkpt lat="47.59722" lon="13.155464">
                <ele>468.03034</ele>
            </trkpt>
            <trkpt lat="47.596735" lon="13.156406">
                <ele>467.47742</ele>
            </trkpt>
            <trkpt lat="47.596608" lon="13.157728">
                <ele>467.85579</ele>
            </trkpt>
            <trkpt lat="47.595905" lon="13.159553">
                <ele>468.27836</ele>
            </trkpt>
            <trkpt lat="47.596187" lon="13.160554">
                <ele>468.40583</ele>
            </trkpt>
            <trkpt lat="47.596796" lon="13.161308">
                <ele>468.12672</ele>
            </trkpt>
            <trkpt lat="47.596468" lon="13.162301">
                <ele>467.75427</ele>
            </trkpt>
            <trkpt lat="47.596413" lon="13.16308">
                <ele>468.47176</ele>
            </trkpt>
            <trkpt lat="47.596495" lon="13.164846">
                <ele>468.95334</ele>
            </trkpt>
            <trkpt lat="47.596576" lon="13.165198">
                <ele>468.57276</ele>
            </trkpt>
            <trkpt lat="47.596629" lon="13.165341">
                <ele>468.72232</ele>
            </trkpt>
            <trkpt lat="47.596241" lon="13.165399">
                <ele>467.70921</ele>
            </trkpt>
            <trkpt lat="47.595706" lon="13.165309">
                <ele>467.85747</ele>
            </trkpt>
            <trkpt lat="47.594955" lon="13.165127">
                <ele>468.50893</ele>
            </trkpt>
            <trkpt lat="47.594176" lon="13.165121">
                <ele>468.36163</ele>
            </trkpt>
            <trkpt lat="47.593637" lon="13.165055">
                <ele>468.37892</ele>
            </trkpt>
            <trkpt lat="47.592855" lon="13.164731">
                <ele>468.67151</ele>
            </trkpt>
            <trkpt lat="47.592546" lon="13.164648">
                <ele>468.8528</ele>
            </trkpt>
            <trkpt lat="47.592448" lon="13.165012">
                <ele>468.80205</ele>
            </trkpt>
            <trkpt lat="47.592381" lon="13.16572">
                <ele>468.47744</ele>
            </trkpt>
            <trkpt lat="47.592236" lon="13.166532">
                <ele>468.37234</ele>
            </trkpt>
            <trkpt lat="47.592193" lon="13.167559">
                <ele>469.09585</ele>
            </trkpt>
            <trkpt lat="47.592206" lon="13.168533">
                <ele>468.76107</ele>
            </trkpt>
            <trkpt lat="47.591942" lon="13.168479">
                <ele>468.84389</ele>
            </trkpt>
            <trkpt lat="47.591319" lon="13.168283">
                <ele>468.97828</ele>
            </trkpt>
            <trkpt lat="47.590624" lon="13.169079">
                <ele>474.64202</ele>
            </trkpt>
            <trkpt lat="47.590511" lon="13.169486">
                <ele>476.09837</ele>
            </trkpt>
            <trkpt lat="47.590275" lon="13.1698">
                <ele>476.24188</ele>
            </trkpt>
            <trkpt lat="47.589595" lon="13.170168">
                <ele>476.43898</ele>
            </trkpt>
            <trkpt lat="47.589229" lon="13.170488">
                <ele>476.67175</ele>
            </trkpt>
            <trkpt lat="47.588757" lon="13.170849">
                <ele>476.26095</ele>
            </trkpt>
            <trkpt lat="47.588766" lon="13.170943">
                <ele>476.23113</ele>
            </trkpt>
            <trkpt lat="47.588734" lon="13.171382">
                <ele>474.1981</ele>
            </trkpt>
            <trkpt lat="47.588761" lon="13.171949">
                <ele>473.45888</ele>
            </trkpt>
            <trkpt lat="47.588342" lon="13.172362">
                <ele>473.69135</ele>
            </trkpt>
            <trkpt lat="47.587938" lon="13.172806">
                <ele>473.72041</ele>
            </trkpt>
            <trkpt lat="47.587217" lon="13.173436">
                <ele>473.71468</ele>
            </trkpt>
            <trkpt lat="47.586628" lon="13.173819">
                <ele>474.34053</ele>
            </trkpt>
            <trkpt lat="47.586329" lon="13.173976">
                <ele>474.14551</ele>
            </trkpt>
            <trkpt lat="47.58619" lon="13.175983">
                <ele>473.7852</ele>
            </trkpt>
            <trkpt lat="47.586419" lon="13.176674">
                <ele>474.22288</ele>
            </trkpt>
            <trkpt lat="47.586477" lon="13.177063">
                <ele>476.4947</ele>
            </trkpt>
            <trkpt lat="47.586342" lon="13.177557">
                <ele>475.93337</ele>
            </trkpt>
            <trkpt lat="47.586533" lon="13.17812">
                <ele>475.21746</ele>
            </trkpt>
            <trkpt lat="47.586514" lon="13.178094">
                <ele>475.25855</ele>
            </trkpt>
            <trkpt lat="47.586889" lon="13.17878">
                <ele>476.11755</ele>
            </trkpt>
            <trkpt lat="47.587027" lon="13.179094">
                <ele>476.60786</ele>
            </trkpt>
            <trkpt lat="47.586946" lon="13.179195">
                <ele>476.50033</ele>
            </trkpt>
            <trkpt lat="47.586184" lon="13.179872">
                <ele>476.29623</ele>
            </trkpt>
            <trkpt lat="47.585299" lon="13.181131">
                <ele>477.10054</ele>
            </trkpt>
            <trkpt lat="47.584849" lon="13.181705">
                <ele>477.92742</ele>
            </trkpt>
            <trkpt lat="47.584174" lon="13.182216">
                <ele>478.66877</ele>
            </trkpt>
            <trkpt lat="47.582929" lon="13.182391">
                <ele>480.30472</ele>
            </trkpt>
            <trkpt lat="47.582064" lon="13.182604">
                <ele>484.9522</ele>
            </trkpt>
            <trkpt lat="47.581379" lon="13.183444">
                <ele>490.05103</ele>
            </trkpt>
            <trkpt lat="47.581079" lon="13.184313">
                <ele>495.27083</ele>
            </trkpt>
            <trkpt lat="47.580786" lon="13.185778">
                <ele>502.98033</ele>
            </trkpt>
            <trkpt lat="47.58027" lon="13.187089">
                <ele>510.82189</ele>
            </trkpt>
            <trkpt lat="47.579501" lon="13.188456">
                <ele>520.0044</ele>
            </trkpt>
            <trkpt lat="47.578754" lon="13.190051">
                <ele>530.99837</ele>
            </trkpt>
            <trkpt lat="47.57807" lon="13.192344">
                <ele>543.73953</ele>
            </trkpt>
            <trkpt lat="47.577366" lon="13.193896">
                <ele>551.4353</ele>
            </trkpt>
            <trkpt lat="47.577157" lon="13.194156">
                <ele>552.17908</ele>
            </trkpt>
            <trkpt lat="47.577004" lon="13.19455">
                <ele>552.99758</ele>
            </trkpt>
            <trkpt lat="47.576602" lon="13.195007">
                <ele>564.03591</ele>
            </trkpt>
            <trkpt lat="47.576082" lon="13.194966">
                <ele>569.24755</ele>
            </trkpt>
            <trkpt lat="47.575504" lon="13.195084">
                <ele>560.90048</ele>
            </trkpt>
            <trkpt lat="47.574429" lon="13.195153">
                <ele>548.00496</ele>
            </trkpt>
            <trkpt lat="47.574409" lon="13.194684">
                <ele>534.83023</ele>
            </trkpt>
            <trkpt lat="47.573517" lon="13.194789">
                <ele>539.52698</ele>
            </trkpt>
            <trkpt lat="47.573105" lon="13.19434">
                <ele>536.00165</ele>
            </trkpt>
            <trkpt lat="47.572784" lon="13.193602">
                <ele>531.19322</ele>
            </trkpt>
            <trkpt lat="47.572572" lon="13.192132">
                <ele>519.40595</ele>
            </trkpt>
            <trkpt lat="47.572019" lon="13.190384">
                <ele>505.7136</ele>
            </trkpt>
            <trkpt lat="47.570896" lon="13.189641">
                <ele>545.70008</ele>
            </trkpt>
            <trkpt lat="47.569457" lon="13.187306">
                <ele>494.09174</ele>
            </trkpt>
            <trkpt lat="47.567953" lon="13.184035">
                <ele>493.53371</ele>
            </trkpt>
            <trkpt lat="47.567415" lon="13.181944">
                <ele>492.34786</ele>
            </trkpt>
            <trkpt lat="47.566649" lon="13.180441">
                <ele>495.4268</ele>
            </trkpt>
            <trkpt lat="47.566173" lon="13.17933">
                <ele>499.22083</ele>
            </trkpt>
            <trkpt lat="47.565724" lon="13.176983">
                <ele>496.69279</ele>
            </trkpt>
            <trkpt lat="47.565349" lon="13.174497">
                <ele>504.02569</ele>
            </trkpt>
            <trkpt lat="47.565063" lon="13.172988">
                <ele>502.00233</ele>
            </trkpt>
            <trkpt lat="47.56507" lon="13.172941">
                <ele>501.3482</ele>
            </trkpt>
            <trkpt lat="47.564613" lon="13.170102">
                <ele>502.42569</ele>
            </trkpt>
            <trkpt lat="47.56426" lon="13.168806">
                <ele>500.8247</ele>
            </trkpt>
            <trkpt lat="47.563515" lon="13.167726">
                <ele>498.04368</ele>
            </trkpt>
            <trkpt lat="47.562321" lon="13.166941">
                <ele>497.30227</ele>
            </trkpt>
            <trkpt lat="47.560667" lon="13.166452">
                <ele>500.68255</ele>
            </trkpt>
            <trkpt lat="47.559091" lon="13.16641">
                <ele>501.28996</ele>
            </trkpt>
            <trkpt lat="47.557157" lon="13.166555">
                <ele>504.07035</ele>
            </trkpt>
            <trkpt lat="47.555558" lon="13.167155">
                <ele>501.58249</ele>
            </trkpt>
            <trkpt lat="47.554233" lon="13.168092">
                <ele>498.2894</ele>
            </trkpt>
            <trkpt lat="47.553294" lon="13.169211">
                <ele>501.07889</ele>
            </trkpt>
            <trkpt lat="47.552454" lon="13.169939">
                <ele>505.97613</ele>
            </trkpt>
            <trkpt lat="47.551446" lon="13.170333">
                <ele>499.68212</ele>
            </trkpt>
            <trkpt lat="47.550405" lon="13.170289">
                <ele>498.90139</ele>
            </trkpt>
            <trkpt lat="47.549406" lon="13.170115">
                <ele>500.20904</ele>
            </trkpt>
            <trkpt lat="47.548735" lon="13.170058">
                <ele>501.5982</ele>
            </trkpt>
            <trkpt lat="47.548201" lon="13.170084">
                <ele>503.73382</ele>
            </trkpt>
            <trkpt lat="47.545261" lon="13.170631">
                <ele>507.69798</ele>
            </trkpt>
            <trkpt lat="47.543761" lon="13.171129">
                <ele>510.27733</ele>
            </trkpt>
            <trkpt lat="47.542428" lon="13.171522">
                <ele>505.77291</ele>
            </trkpt>
            <trkpt lat="47.541678" lon="13.171482">
                <ele>504.26558</ele>
            </trkpt>
            <trkpt lat="47.541017" lon="13.171323">
                <ele>504.82058</ele>
            </trkpt>
            <trkpt lat="47.540554" lon="13.171252">
                <ele>507.40444</ele>
            </trkpt>
            <trkpt lat="47.539803" lon="13.17092">
                <ele>510.97744</ele>
            </trkpt>
            <trkpt lat="47.538367" lon="13.169953">
                <ele>513.65963</ele>
            </trkpt>
            <trkpt lat="47.537161" lon="13.169033">
                <ele>516.16538</ele>
            </trkpt>
            <trkpt lat="47.536276" lon="13.168193">
                <ele>515.5853</ele>
            </trkpt>
            <trkpt lat="47.535094" lon="13.167522">
                <ele>512.30564</ele>
            </trkpt>
            <trkpt lat="47.533776" lon="13.167331">
                <ele>513.17263</ele>
            </trkpt>
            <trkpt lat="47.53331" lon="13.16704">
                <ele>511.74352</ele>
            </trkpt>
            <trkpt lat="47.532008" lon="13.16629">
                <ele>512.25173</ele>
            </trkpt>
            <trkpt lat="47.531051" lon="13.166129">
                <ele>511.25924</ele>
            </trkpt>
            <trkpt lat="47.529848" lon="13.166423">
                <ele>511.12424</ele>
            </trkpt>
            <trkpt lat="47.52879" lon="13.167198">
                <ele>514.13497</ele>
            </trkpt>
            <trkpt lat="47.52762" lon="13.167387">
                <ele>517.68735</ele>
            </trkpt>
            <trkpt lat="47.52646" lon="13.167338">
                <ele>520.13575</ele>
            </trkpt>
            <trkpt lat="47.524702" lon="13.167803">
                <ele>521.42519</ele>
            </trkpt>
            <trkpt lat="47.523706" lon="13.167721">
                <ele>520.64929</ele>
            </trkpt>
            <trkpt lat="47.522774" lon="13.167249">
                <ele>513.37672</ele>
            </trkpt>
            <trkpt lat="47.521458" lon="13.166432">
                <ele>502.26323</ele>
            </trkpt>
            <trkpt lat="47.520417" lon="13.165688">
                <ele>515.5983</ele>
            </trkpt>
            <trkpt lat="47.518696" lon="13.164532">
                <ele>519.89977</ele>
            </trkpt>
            <trkpt lat="47.517315" lon="13.163861">
                <ele>528.72133</ele>
            </trkpt>
            <trkpt lat="47.516299" lon="13.164034">
                <ele>531.98585</ele>
            </trkpt>
            <trkpt lat="47.514629" lon="13.164996">
                <ele>539.45962</ele>
            </trkpt>
            <trkpt lat="47.513474" lon="13.165858">
                <ele>541.14472</ele>
            </trkpt>
            <trkpt lat="47.51249" lon="13.166472">
                <ele>538.63185</ele>
            </trkpt>
            <trkpt lat="47.511313" lon="13.166869">
                <ele>533.03672</ele>
            </trkpt>
            <trkpt lat="47.510419" lon="13.166976">
                <ele>528.3705</ele>
            </trkpt>
            <trkpt lat="47.509651" lon="13.166942">
                <ele>525.59813</ele>
            </trkpt>
            <trkpt lat="47.508469" lon="13.16664">
                <ele>524.04571</ele>
            </trkpt>
            <trkpt lat="47.507188" lon="13.166272">
                <ele>514.84872</ele>
            </trkpt>
            <trkpt lat="47.505752" lon="13.166975">
                <ele>516.08382</ele>
            </trkpt>
            <trkpt lat="47.504439" lon="13.16795">
                <ele>513.55359</ele>
            </trkpt>
            <trkpt lat="47.502253" lon="13.169659">
                <ele>519.73644</ele>
            </trkpt>
            <trkpt lat="47.499616" lon="13.171586">
                <ele>522.2178</ele>
            </trkpt>
            <trkpt lat="47.49835" lon="13.172759">
                <ele>522.63651</ele>
            </trkpt>
            <trkpt lat="47.497641" lon="13.174066">
                <ele>523.2167</ele>
            </trkpt>
            <trkpt lat="47.496995" lon="13.175314">
                <ele>523.00219</ele>
            </trkpt>
            <trkpt lat="47.496262" lon="13.175844">
                <ele>521.40748</ele>
            </trkpt>
            <trkpt lat="47.495223" lon="13.175782">
                <ele>521.75115</ele>
            </trkpt>
            <trkpt lat="47.49408" lon="13.175574">
                <ele>521.72582</ele>
            </trkpt>
            <trkpt lat="47.494211" lon="13.175603">
                <ele>521.60562</ele>
            </trkpt>
            <trkpt lat="47.493297" lon="13.17541">
                <ele>520.00382</ele>
            </trkpt>
            <trkpt lat="47.492536" lon="13.17538">
                <ele>518.77261</ele>
            </trkpt>
            <trkpt lat="47.492088" lon="13.175488">
                <ele>518.43134</ele>
            </trkpt>
            <trkpt lat="47.491724" lon="13.176059">
                <ele>518.48045</ele>
            </trkpt>
            <trkpt lat="47.491221" lon="13.176958">
                <ele>520.9578</ele>
            </trkpt>
            <trkpt lat="47.49057" lon="13.177359">
                <ele>525.14434</ele>
            </trkpt>
            <trkpt lat="47.490121" lon="13.177842">
                <ele>527.95621</ele>
            </trkpt>
            <trkpt lat="47.489612" lon="13.179041">
                <ele>537.45883</ele>
            </trkpt>
            <trkpt lat="47.489439" lon="13.179753">
                <ele>536.9854</ele>
            </trkpt>
            <trkpt lat="47.489202" lon="13.180636">
                <ele>535.739</ele>
            </trkpt>
            <trkpt lat="47.488841" lon="13.181375">
                <ele>540.62503</ele>
            </trkpt>
            <trkpt lat="47.488416" lon="13.182402">
                <ele>543.80309</ele>
            </trkpt>
            <trkpt lat="47.488101" lon="13.183047">
                <ele>546.40808</ele>
            </trkpt>
            <trkpt lat="47.487257" lon="13.184384">
                <ele>553.74815</ele>
            </trkpt>
            <trkpt lat="47.486855" lon="13.184721">
                <ele>561.53834</ele>
            </trkpt>
            <trkpt lat="47.486471" lon="13.185135">
                <ele>560.75606</ele>
            </trkpt>
            <trkpt lat="47.485994" lon="13.185344">
                <ele>572.80472</ele>
            </trkpt>
            <trkpt lat="47.484895" lon="13.185456">
                <ele>567.96059</ele>
            </trkpt>
            <trkpt lat="47.4835" lon="13.185304">
                <ele>576.09394</ele>
            </trkpt>
            <trkpt lat="47.482689" lon="13.18512">
                <ele>576.34019</ele>
            </trkpt>
            <trkpt lat="47.482165" lon="13.185064">
                <ele>575.96209</ele>
            </trkpt>
            <trkpt lat="47.481281" lon="13.185139">
                <ele>573.12458</ele>
            </trkpt>
            <trkpt lat="47.480632" lon="13.185592">
                <ele>567.03751</ele>
            </trkpt>
            <trkpt lat="47.480533" lon="13.185608">
                <ele>566.56334</ele>
            </trkpt>
            <trkpt lat="47.480331" lon="13.185412">
                <ele>564.60557</ele>
            </trkpt>
            <trkpt lat="47.479793" lon="13.185931">
                <ele>558.88953</ele>
            </trkpt>
            <trkpt lat="47.479257" lon="13.186748">
                <ele>554.63722</ele>
            </trkpt>
            <trkpt lat="47.478963" lon="13.187263">
                <ele>551.76062</ele>
            </trkpt>
            <trkpt lat="47.478668" lon="13.187612">
                <ele>551.60351</ele>
            </trkpt>
            <trkpt lat="47.478421" lon="13.187943">
                <ele>549.05506</ele>
            </trkpt>
            <trkpt lat="47.477924" lon="13.18825">
                <ele>546.5065</ele>
            </trkpt>
            <trkpt lat="47.476829" lon="13.189014">
                <ele>546.48506</ele>
            </trkpt>
            <trkpt lat="47.475656" lon="13.190016">
                <ele>545.31568</ele>
            </trkpt>
            <trkpt lat="47.474677" lon="13.191012">
                <ele>539.43706</ele>
            </trkpt>
            <trkpt lat="47.473771" lon="13.191731">
                <ele>538.28653</ele>
            </trkpt>
            <trkpt lat="47.473487" lon="13.192097">
                <ele>533.00163</ele>
            </trkpt>
            <trkpt lat="47.473316" lon="13.192458">
                <ele>531.64408</ele>
            </trkpt>
            <trkpt lat="47.47324" lon="13.192741">
                <ele>529.3192</ele>
            </trkpt>
            <trkpt lat="47.473211" lon="13.193102">
                <ele>527.84642</ele>
            </trkpt>
            <trkpt lat="47.473179" lon="13.193203">
                <ele>527.33323</ele>
            </trkpt>
            <trkpt lat="47.472899" lon="13.192918">
                <ele>526.65911</ele>
            </trkpt>
            <trkpt lat="47.472153" lon="13.193084">
                <ele>523.57471</ele>
            </trkpt>
            <trkpt lat="47.471208" lon="13.193433">
                <ele>519.243</ele>
            </trkpt>
            <trkpt lat="47.4707" lon="13.193454">
                <ele>524.13172</ele>
            </trkpt>
            <trkpt lat="47.470266" lon="13.193674">
                <ele>526.19896</ele>
            </trkpt>
            <trkpt lat="47.469782" lon="13.194102">
                <ele>526.70573</ele>
            </trkpt>
            <trkpt lat="47.469386" lon="13.194501">
                <ele>525.60295</ele>
            </trkpt>
            <trkpt lat="47.468842" lon="13.195153">
                <ele>524.95968</ele>
            </trkpt>
            <trkpt lat="47.468452" lon="13.1957">
                <ele>524.72934</ele>
            </trkpt>
            <trkpt lat="47.467607" lon="13.196786">
                <ele>526.8799</ele>
            </trkpt>
            <trkpt lat="47.467265" lon="13.197435">
                <ele>525.48726</ele>
            </trkpt>
            <trkpt lat="47.467029" lon="13.198018">
                <ele>525.09649</ele>
            </trkpt>
            <trkpt lat="47.466936" lon="13.198541">
                <ele>524.52762</ele>
            </trkpt>
            <trkpt lat="47.466813" lon="13.198782">
                <ele>524.62569</ele>
            </trkpt>
            <trkpt lat="47.46675" lon="13.198839">
                <ele>525.31154</ele>
            </trkpt>
            <trkpt lat="47.466663" lon="13.199069">
                <ele>524.81387</ele>
            </trkpt>
            <trkpt lat="47.466271" lon="13.199048">
                <ele>526.40414</ele>
            </trkpt>
            <trkpt lat="47.466115" lon="13.198993">
                <ele>526.32294</ele>
            </trkpt>
            <trkpt lat="47.465568" lon="13.198306">
                <ele>526.97917</ele>
            </trkpt>
            <trkpt lat="47.464874" lon="13.197748">
                <ele>526.13891</ele>
            </trkpt>
            <trkpt lat="47.464318" lon="13.197762">
                <ele>526.82813</ele>
            </trkpt>
            <trkpt lat="47.463515" lon="13.198097">
                <ele>527.52441</ele>
            </trkpt>
            <trkpt lat="47.462405" lon="13.19836">
                <ele>527.00055</ele>
            </trkpt>
            <trkpt lat="47.461717" lon="13.198479">
                <ele>528.72413</ele>
            </trkpt>
            <trkpt lat="47.461585" lon="13.198465">
                <ele>528.875</ele>
            </trkpt>
            <trkpt lat="47.461441" lon="13.198633">
                <ele>528.42514</ele>
            </trkpt>
            <trkpt lat="47.461633" lon="13.199346">
                <ele>525.20659</ele>
            </trkpt>
            <trkpt lat="47.461585" lon="13.199451">
                <ele>526.91268</ele>
            </trkpt>
            <trkpt lat="47.460144" lon="13.200145">
                <ele>527.05636</ele>
            </trkpt>
            <trkpt lat="47.458181" lon="13.201228">
                <ele>530.14112</ele>
            </trkpt>
            <trkpt lat="47.456714" lon="13.202457">
                <ele>527.95117</ele>
            </trkpt>
            <trkpt lat="47.456506" lon="13.201788">
                <ele>526.94471</ele>
            </trkpt>
            <trkpt lat="47.455581" lon="13.202341">
                <ele>525.80476</ele>
            </trkpt>
            <trkpt lat="47.455011" lon="13.20293">
                <ele>525.9218</ele>
            </trkpt>
            <trkpt lat="47.454733" lon="13.203792">
                <ele>529.18103</ele>
            </trkpt>
            <trkpt lat="47.454592" lon="13.205383">
                <ele>528.68712</ele>
            </trkpt>
            <trkpt lat="47.454616" lon="13.206454">
                <ele>529.09453</ele>
            </trkpt>
            <trkpt lat="47.454504" lon="13.207625">
                <ele>529.98483</ele>
            </trkpt>
            <trkpt lat="47.454172" lon="13.208936">
                <ele>528.57083</ele>
            </trkpt>
            <trkpt lat="47.453897" lon="13.209739">
                <ele>529.11134</ele>
            </trkpt>
            <trkpt lat="47.453429" lon="13.210707">
                <ele>529.69459</ele>
            </trkpt>
            <trkpt lat="47.452639" lon="13.211803">
                <ele>529.93335</ele>
            </trkpt>
            <trkpt lat="47.452063" lon="13.21234">
                <ele>529.03475</ele>
            </trkpt>
            <trkpt lat="47.451019" lon="13.213072">
                <ele>529.93046</ele>
            </trkpt>
            <trkpt lat="47.449858" lon="13.213358">
                <ele>528.9966</ele>
            </trkpt>
            <trkpt lat="47.448872" lon="13.213376">
                <ele>529.3707</ele>
            </trkpt>
            <trkpt lat="47.447383" lon="13.213336">
                <ele>529.38217</ele>
            </trkpt>
            <trkpt lat="47.445121" lon="13.213378">
                <ele>533.58482</ele>
            </trkpt>
            <trkpt lat="47.445107" lon="13.213352">
                <ele>533.59089</ele>
            </trkpt>
            <trkpt lat="47.443514" lon="13.213182">
                <ele>533.32579</ele>
            </trkpt>
            <trkpt lat="47.443095" lon="13.213052">
                <ele>532.82715</ele>
            </trkpt>
            <trkpt lat="47.44269" lon="13.213127">
                <ele>534.88825</ele>
            </trkpt>
            <trkpt lat="47.442135" lon="13.213073">
                <ele>536.74295</ele>
            </trkpt>
            <trkpt lat="47.441504" lon="13.212961">
                <ele>536.45496</ele>
            </trkpt>
            <trkpt lat="47.440942" lon="13.212816">
                <ele>536.42164</ele>
            </trkpt>
            <trkpt lat="47.439669" lon="13.212153">
                <ele>535.50841</ele>
            </trkpt>
            <trkpt lat="47.439263" lon="13.212046">
                <ele>536.61035</ele>
            </trkpt>
            <trkpt lat="47.438941" lon="13.2118">
                <ele>535.97856</ele>
            </trkpt>
            <trkpt lat="47.438528" lon="13.211556">
                <ele>535.89778</ele>
            </trkpt>
            <trkpt lat="47.438285" lon="13.211556">
                <ele>537.46173</ele>
            </trkpt>
            <trkpt lat="47.438009" lon="13.211511">
                <ele>538.07238</ele>
            </trkpt>
            <trkpt lat="47.437745" lon="13.211506">
                <ele>539.06975</ele>
            </trkpt>
            <trkpt lat="47.437252" lon="13.211346">
                <ele>537.18207</ele>
            </trkpt>
            <trkpt lat="47.437124" lon="13.211251">
                <ele>535.91601</ele>
            </trkpt>
            <trkpt lat="47.43697" lon="13.211211">
                <ele>536.91018</ele>
            </trkpt>
            <trkpt lat="47.436941" lon="13.210922">
                <ele>535.67711</ele>
            </trkpt>
            <trkpt lat="47.436904" lon="13.210972">
                <ele>537.83513</ele>
            </trkpt>
            <trkpt lat="47.436637" lon="13.210767">
                <ele>538.31729</ele>
            </trkpt>
            <trkpt lat="47.43654" lon="13.210474">
                <ele>538.15772</ele>
            </trkpt>
            <trkpt lat="47.436428" lon="13.210439">
                <ele>538.534</ele>
            </trkpt>
            <trkpt lat="47.435248" lon="13.210717">
                <ele>537.26871</ele>
            </trkpt>
            <trkpt lat="47.434461" lon="13.211095">
                <ele>537.83939</ele>
            </trkpt>
            <trkpt lat="47.434189" lon="13.211496">
                <ele>538.09339</ele>
            </trkpt>
            <trkpt lat="47.433495" lon="13.213132">
                <ele>537.91727</ele>
            </trkpt>
            <trkpt lat="47.432855" lon="13.214118">
                <ele>537.86527</ele>
            </trkpt>
            <trkpt lat="47.431779" lon="13.215244">
                <ele>538.2776</ele>
            </trkpt>
            <trkpt lat="47.42962" lon="13.216358">
                <ele>538.41239</ele>
            </trkpt>
            <trkpt lat="47.429505" lon="13.217311">
                <ele>538.06276</ele>
            </trkpt>
            <trkpt lat="47.429374" lon="13.217886">
                <ele>537.98175</ele>
            </trkpt>
            <trkpt lat="47.428996" lon="13.218373">
                <ele>537.52897</ele>
            </trkpt>
            <trkpt lat="47.428902" lon="13.218548">
                <ele>537.45059</ele>
            </trkpt>
            <trkpt lat="47.428672" lon="13.218867">
                <ele>537.64842</ele>
            </trkpt>
            <trkpt lat="47.428333" lon="13.219288">
                <ele>536.8072</ele>
            </trkpt>
            <trkpt lat="47.428202" lon="13.219889">
                <ele>538.01689</ele>
            </trkpt>
            <trkpt lat="47.428097" lon="13.220296">
                <ele>538.51003</ele>
            </trkpt>
            <trkpt lat="47.427836" lon="13.220513">
                <ele>538.10467</ele>
            </trkpt>
            <trkpt lat="47.427307" lon="13.220594">
                <ele>536.5995</ele>
            </trkpt>
            <trkpt lat="47.42724" lon="13.221399">
                <ele>538.05608</ele>
            </trkpt>
            <trkpt lat="47.426953" lon="13.221362">
                <ele>538.6789</ele>
            </trkpt>
            <trkpt lat="47.426429" lon="13.221113">
                <ele>539.83081</ele>
            </trkpt>
            <trkpt lat="47.425982" lon="13.220842">
                <ele>537.04793</ele>
            </trkpt>
            <trkpt lat="47.425434" lon="13.220763">
                <ele>540.68444</ele>
            </trkpt>
            <trkpt lat="47.425227" lon="13.220947">
                <ele>539.07574</ele>
            </trkpt>
            <trkpt lat="47.424793" lon="13.220611">
                <ele>539.06045</ele>
            </trkpt>
            <trkpt lat="47.424205" lon="13.220232">
                <ele>539.51251</ele>
            </trkpt>
            <trkpt lat="47.424091" lon="13.220104">
                <ele>539.34752</ele>
            </trkpt>
            <trkpt lat="47.424054" lon="13.2197">
                <ele>538.9578</ele>
            </trkpt>
            <trkpt lat="47.424076" lon="13.219681">
                <ele>538.64069</ele>
            </trkpt>
            <trkpt lat="47.424149" lon="13.219369">
                <ele>539.07447</ele>
            </trkpt>
            <trkpt lat="47.423643" lon="13.219282">
                <ele>539.17086</ele>
            </trkpt>
            <trkpt lat="47.422169" lon="13.219437">
                <ele>540.20544</ele>
            </trkpt>
            <trkpt lat="47.421445" lon="13.219437">
                <ele>538.72082</ele>
            </trkpt>
            <trkpt lat="47.420985" lon="13.219315">
                <ele>540.60374</ele>
            </trkpt>
            <trkpt lat="47.420486" lon="13.218896">
                <ele>542.97952</ele>
            </trkpt>
            <trkpt lat="47.41787" lon="13.218778">
                <ele>547.72747</ele>
            </trkpt>
        </trkseg>
    </trk>
</gpx>
