<?xml version="1.0" encoding="UTF-8" standalone="yes"?>
<gpx version="1.1" creator="outdooractive - http://www.outdooractive.com" xmlns="http://www.topografix.com/GPX/1/1" xmlns:xsi="http://www.w3.org/2001/XMLSchema-instance" xsi:schemaLocation="http://www.topografix.com/GPX/1/1 http://www.topografix.com/GPX/1/1/gpx.xsd" xmlns:oa="http://www.outdooractive.com/GPX/Extensions/1">
  <metadata>
    <name>Venzone - Udine (C102)</name>
    <author>
      <name>PromoTurismoFVG Bike - Friuli Venezia Giulia</name>
    </author>
    <link href="https://www.outdooractive.com/r/802795719"/>
    <time>2024-06-05T07:20:05.446Z</time>
    <extensions>
      <oa:oaCategory>longDistanceCyclingTrack</oa:oaCategory>
    </extensions>
  </metadata>
  <trk>
    <name>Venzone - Udine (C102)</name>
    <desc>La Ciclovia Alpe Adria FVG 1 tra Venzone e Udine affronta un percorso in parte collinare, molto ameno e ricco di punti paesaggistici e panoramici.</desc>
    <type>longDistanceCyclingTrack</type>
    <trkseg>
      <trkpt lat="46.333702" lon="13.139434">
        <ele>230.92045</ele>
        <name>46.333702,13.139434</name>
        <extensions>
          <oa:mapZoom>10</oa:mapZoom>
        </extensions>
      </trkpt>
      <trkpt lat="46.333165" lon="13.139026">
        <ele>231.47907</ele>
      </trkpt>
      <trkpt lat="46.332715" lon="13.139327">
        <ele>231.83664</ele>
      </trkpt>
      <trkpt lat="46.332307" lon="13.139327">
        <ele>231.60458</ele>
      </trkpt>
      <trkpt lat="46.331899" lon="13.138747">
        <ele>230.19035</ele>
      </trkpt>
      <trkpt lat="46.331663" lon="13.139091">
        <ele>230.6162</ele>
      </trkpt>
      <trkpt lat="46.331577" lon="13.139648">
        <ele>231.65073</ele>
      </trkpt>
      <trkpt lat="46.330633" lon="13.139606">
        <ele>229.81033</ele>
      </trkpt>
      <trkpt lat="46.330183" lon="13.139284">
        <ele>231.59958</ele>
      </trkpt>
      <trkpt lat="46.330075" lon="13.13879">
        <ele>229.92689</ele>
      </trkpt>
      <trkpt lat="46.329217" lon="13.137159">
        <ele>226.37628</ele>
      </trkpt>
      <trkpt lat="46.328846" lon="13.137522">
        <ele>226.3018</ele>
      </trkpt>
      <trkpt lat="46.327756" lon="13.135617">
        <ele>224.05132</ele>
      </trkpt>
      <trkpt lat="46.328398" lon="13.135289">
        <ele>224.6995</ele>
      </trkpt>
      <trkpt lat="46.329045" lon="13.13379">
        <ele>225.81646</ele>
      </trkpt>
      <trkpt lat="46.329281" lon="13.133554">
        <ele>224.60103</ele>
      </trkpt>
      <trkpt lat="46.329281" lon="13.132396">
        <ele>225.07669</ele>
      </trkpt>
      <trkpt lat="46.326792" lon="13.131237">
        <ele>223.04493</ele>
      </trkpt>
      <trkpt lat="46.325719" lon="13.12995">
        <ele>222.39053</ele>
      </trkpt>
      <trkpt lat="46.323466" lon="13.12834">
        <ele>222.06036</ele>
      </trkpt>
      <trkpt lat="46.321106" lon="13.128297">
        <ele>220.1264</ele>
      </trkpt>
      <trkpt lat="46.320999" lon="13.128598">
        <ele>219.92392</ele>
      </trkpt>
      <trkpt lat="46.321192" lon="13.129177">
        <ele>220.40589</ele>
      </trkpt>
      <trkpt lat="46.32087" lon="13.130379">
        <ele>222.48637</ele>
      </trkpt>
      <trkpt lat="46.319239" lon="13.12995">
        <ele>219.92558</ele>
      </trkpt>
      <trkpt lat="46.314411" lon="13.127611">
        <ele>217.44747</ele>
      </trkpt>
      <trkpt lat="46.313574" lon="13.127482">
        <ele>219.77126</ele>
      </trkpt>
      <trkpt lat="46.310055" lon="13.127761">
        <ele>217.36091</ele>
      </trkpt>
      <trkpt lat="46.309004" lon="13.127697">
        <ele>215.87744</ele>
      </trkpt>
      <trkpt lat="46.308124" lon="13.127353">
        <ele>217.68192</ele>
      </trkpt>
      <trkpt lat="46.307116" lon="13.126624">
        <ele>230.67593</ele>
      </trkpt>
      <trkpt lat="46.306686" lon="13.12613">
        <ele>226.73651</ele>
      </trkpt>
      <trkpt lat="46.304991" lon="13.122954">
        <ele>223.24873</ele>
      </trkpt>
      <trkpt lat="46.30379" lon="13.121753">
        <ele>216.64615</ele>
      </trkpt>
      <trkpt lat="46.30233" lon="13.121088">
        <ele>221.54123</ele>
      </trkpt>
      <trkpt lat="46.299369" lon="13.120551">
        <ele>212.18219</ele>
      </trkpt>
      <trkpt lat="46.299284" lon="13.120658">
        <ele>211.48408</ele>
      </trkpt>
      <trkpt lat="46.299412" lon="13.120937">
        <ele>213.25354</ele>
      </trkpt>
      <trkpt lat="46.299262" lon="13.120766">
        <ele>212.37487</ele>
        <name>46.299262,13.120766</name>
        <extensions>
          <oa:mapZoom>10</oa:mapZoom>
        </extensions>
      </trkpt>
      <trkpt lat="46.299047" lon="13.120315">
        <ele>209.68429</ele>
      </trkpt>
      <trkpt lat="46.299112" lon="13.118963">
        <ele>207.87892</ele>
      </trkpt>
      <trkpt lat="46.297867" lon="13.119049">
        <ele>207.78819</ele>
      </trkpt>
      <trkpt lat="46.297674" lon="13.119414">
        <ele>207.58411</ele>
      </trkpt>
      <trkpt lat="46.296408" lon="13.119693">
        <ele>206.45703</ele>
      </trkpt>
      <trkpt lat="46.293131" lon="13.12134">
        <ele>205.19747</ele>
      </trkpt>
      <trkpt lat="46.292883" lon="13.121626">
        <ele>205.14726</ele>
      </trkpt>
      <trkpt lat="46.292296" lon="13.123074">
        <ele>204.21713</ele>
      </trkpt>
      <trkpt lat="46.292031" lon="13.123019">
        <ele>204.29358</ele>
      </trkpt>
      <trkpt lat="46.289972" lon="13.123748">
        <ele>202.54867</ele>
      </trkpt>
      <trkpt lat="46.289649" lon="13.123512">
        <ele>203.57415</ele>
      </trkpt>
      <trkpt lat="46.289284" lon="13.122611">
        <ele>201.69752</ele>
      </trkpt>
      <trkpt lat="46.289177" lon="13.122568">
        <ele>201.62986</ele>
      </trkpt>
      <trkpt lat="46.287847" lon="13.123512">
        <ele>202.06623</ele>
      </trkpt>
      <trkpt lat="46.287031" lon="13.123941">
        <ele>200.6506</ele>
      </trkpt>
      <trkpt lat="46.286387" lon="13.124092">
        <ele>200.49871</ele>
      </trkpt>
      <trkpt lat="46.286538" lon="13.123426">
        <ele>199.98337</ele>
      </trkpt>
      <trkpt lat="46.287353" lon="13.123491">
        <ele>200.885</ele>
        <name>46.287353,13.123491</name>
        <extensions>
          <oa:mapZoom>10</oa:mapZoom>
        </extensions>
      </trkpt>
      <trkpt lat="46.287525" lon="13.122997">
        <ele>200.19507</ele>
      </trkpt>
      <trkpt lat="46.28686" lon="13.120465">
        <ele>200.48853</ele>
      </trkpt>
      <trkpt lat="46.286881" lon="13.119006">
        <ele>200.55814</ele>
      </trkpt>
      <trkpt lat="46.286731" lon="13.117933">
        <ele>200.80461</ele>
      </trkpt>
      <trkpt lat="46.286559" lon="13.113191">
        <ele>200.50319</ele>
      </trkpt>
      <trkpt lat="46.286581" lon="13.11244">
        <ele>200.30999</ele>
      </trkpt>
      <trkpt lat="46.286709" lon="13.111989">
        <ele>200.97844</ele>
      </trkpt>
      <trkpt lat="46.28686" lon="13.112097">
        <ele>200.99755</ele>
      </trkpt>
      <trkpt lat="46.287138" lon="13.111067">
        <ele>200.56549</ele>
      </trkpt>
      <trkpt lat="46.28716" lon="13.107591">
        <ele>200.71418</ele>
      </trkpt>
      <trkpt lat="46.286108" lon="13.107526">
        <ele>200.39676</ele>
      </trkpt>
      <trkpt lat="46.286151" lon="13.101819">
        <ele>200.39436</ele>
      </trkpt>
      <trkpt lat="46.28628" lon="13.10154">
        <ele>200.15083</ele>
        <name>46.286280,13.101540</name>
        <extensions>
          <oa:mapZoom>10</oa:mapZoom>
        </extensions>
      </trkpt>
      <trkpt lat="46.286345" lon="13.101368">
        <ele>201.25349</ele>
      </trkpt>
      <trkpt lat="46.28598" lon="13.100917">
        <ele>200.31313</ele>
      </trkpt>
      <trkpt lat="46.284328" lon="13.099651">
        <ele>199.47064</ele>
      </trkpt>
      <trkpt lat="46.282568" lon="13.099051">
        <ele>199.43645</ele>
      </trkpt>
      <trkpt lat="46.282589" lon="13.098407">
        <ele>200.03882</ele>
      </trkpt>
      <trkpt lat="46.282203" lon="13.097978">
        <ele>198.74463</ele>
      </trkpt>
      <trkpt lat="46.281345" lon="13.095896">
        <ele>204.41487</ele>
      </trkpt>
      <trkpt lat="46.280529" lon="13.095767">
        <ele>199.65314</ele>
      </trkpt>
      <trkpt lat="46.280422" lon="13.095124">
        <ele>199.66003</ele>
      </trkpt>
      <trkpt lat="46.27995" lon="13.094459">
        <ele>199.82163</ele>
      </trkpt>
      <trkpt lat="46.278727" lon="13.09478">
        <ele>197.72332</ele>
      </trkpt>
      <trkpt lat="46.277075" lon="13.09418">
        <ele>196.24112</ele>
      </trkpt>
      <trkpt lat="46.274071" lon="13.092377">
        <ele>194.69176</ele>
      </trkpt>
      <trkpt lat="46.272418" lon="13.091111">
        <ele>194.64</ele>
      </trkpt>
      <trkpt lat="46.272097" lon="13.091304">
        <ele>194.09128</ele>
      </trkpt>
      <trkpt lat="46.270852" lon="13.094845">
        <ele>193.48553</ele>
      </trkpt>
      <trkpt lat="46.270273" lon="13.094265">
        <ele>193.38149</ele>
      </trkpt>
      <trkpt lat="46.269886" lon="13.091562">
        <ele>191.95003</ele>
      </trkpt>
      <trkpt lat="46.2692" lon="13.090639">
        <ele>191.62171</ele>
      </trkpt>
      <trkpt lat="46.269135" lon="13.090317">
        <ele>191.19898</ele>
      </trkpt>
      <trkpt lat="46.268878" lon="13.088515">
        <ele>190.51029</ele>
      </trkpt>
      <trkpt lat="46.268942" lon="13.087013">
        <ele>191.05985</ele>
      </trkpt>
      <trkpt lat="46.268578" lon="13.086412">
        <ele>190.02411</ele>
      </trkpt>
      <trkpt lat="46.268578" lon="13.086004">
        <ele>190.18488</ele>
      </trkpt>
      <trkpt lat="46.268406" lon="13.085554">
        <ele>190.06556</ele>
      </trkpt>
      <trkpt lat="46.266968" lon="13.083944">
        <ele>189.6311</ele>
      </trkpt>
      <trkpt lat="46.266668" lon="13.083322">
        <ele>190.04887</ele>
      </trkpt>
      <trkpt lat="46.266668" lon="13.082614">
        <ele>189.43884</ele>
      </trkpt>
      <trkpt lat="46.266861" lon="13.081455">
        <ele>188.76388</ele>
      </trkpt>
      <trkpt lat="46.266775" lon="13.081262">
        <ele>188.54656</ele>
      </trkpt>
      <trkpt lat="46.265402" lon="13.079782">
        <ele>188.00323</ele>
      </trkpt>
      <trkpt lat="46.262376" lon="13.077335">
        <ele>187.94179</ele>
      </trkpt>
      <trkpt lat="46.260574" lon="13.07622">
        <ele>183.8529</ele>
      </trkpt>
      <trkpt lat="46.258922" lon="13.076241">
        <ele>182.76244</ele>
      </trkpt>
      <trkpt lat="46.25845" lon="13.075962">
        <ele>182.50305</ele>
      </trkpt>
      <trkpt lat="46.257441" lon="13.07519">
        <ele>181.59486</ele>
      </trkpt>
      <trkpt lat="46.257269" lon="13.074632">
        <ele>181.33067</ele>
      </trkpt>
      <trkpt lat="46.254802" lon="13.072743">
        <ele>179.40323</ele>
      </trkpt>
      <trkpt lat="46.252055" lon="13.070877">
        <ele>177.70535</ele>
      </trkpt>
      <trkpt lat="46.251884" lon="13.069246">
        <ele>177.10168</ele>
      </trkpt>
      <trkpt lat="46.251755" lon="13.068795">
        <ele>176.98385</ele>
      </trkpt>
      <trkpt lat="46.251369" lon="13.068216">
        <ele>177.33639</ele>
      </trkpt>
      <trkpt lat="46.251283" lon="13.066778">
        <ele>177.87156</ele>
      </trkpt>
      <trkpt lat="46.251562" lon="13.064139">
        <ele>176.46397</ele>
      </trkpt>
      <trkpt lat="46.25124" lon="13.061843">
        <ele>176.73957</ele>
      </trkpt>
      <trkpt lat="46.237314" lon="13.051758">
        <ele>167.45839</ele>
      </trkpt>
      <trkpt lat="46.232529" lon="13.050513">
        <ele>164.68626</ele>
      </trkpt>
      <trkpt lat="46.232336" lon="13.050621">
        <ele>164.53444</ele>
      </trkpt>
      <trkpt lat="46.231971" lon="13.05135">
        <ele>164.40121</ele>
      </trkpt>
      <trkpt lat="46.230597" lon="13.054569">
        <ele>164.83568</ele>
      </trkpt>
      <trkpt lat="46.22637" lon="13.050385">
        <ele>161.85641</ele>
      </trkpt>
      <trkpt lat="46.225426" lon="13.049676">
        <ele>161.67905</ele>
      </trkpt>
      <trkpt lat="46.222873" lon="13.048325">
        <ele>160.96097</ele>
      </trkpt>
      <trkpt lat="46.222057" lon="13.047724">
        <ele>159.83833</ele>
      </trkpt>
      <trkpt lat="46.221735" lon="13.047638">
        <ele>158.86777</ele>
      </trkpt>
      <trkpt lat="46.221199" lon="13.047895">
        <ele>159.14089</ele>
        <name>46.221199,13.047895</name>
        <extensions>
          <oa:mapZoom>10</oa:mapZoom>
        </extensions>
      </trkpt>
      <trkpt lat="46.221156" lon="13.04841">
        <ele>159.54687</ele>
      </trkpt>
      <trkpt lat="46.221263" lon="13.048689">
        <ele>159.70958</ele>
      </trkpt>
      <trkpt lat="46.221821" lon="13.049355">
        <ele>159.69231</ele>
      </trkpt>
      <trkpt lat="46.222293" lon="13.049698">
        <ele>159.93737</ele>
      </trkpt>
      <trkpt lat="46.222036" lon="13.050942">
        <ele>160.04969</ele>
      </trkpt>
      <trkpt lat="46.221542" lon="13.056564">
        <ele>162.04826</ele>
      </trkpt>
      <trkpt lat="46.221006" lon="13.060706">
        <ele>162.888</ele>
      </trkpt>
      <trkpt lat="46.221006" lon="13.061821">
        <ele>163.4257</ele>
      </trkpt>
      <trkpt lat="46.221993" lon="13.063989">
        <ele>164.32383</ele>
      </trkpt>
      <trkpt lat="46.221049" lon="13.068023">
        <ele>164.67642</ele>
      </trkpt>
      <trkpt lat="46.220663" lon="13.06783">
        <ele>164.63611</ele>
      </trkpt>
      <trkpt lat="46.21989" lon="13.071177">
        <ele>163.80886</ele>
      </trkpt>
      <trkpt lat="46.219697" lon="13.071027">
        <ele>163.5265</ele>
      </trkpt>
      <trkpt lat="46.219654" lon="13.071134">
        <ele>163.67739</ele>
      </trkpt>
      <trkpt lat="46.219697" lon="13.072057">
        <ele>163.82253</ele>
      </trkpt>
      <trkpt lat="46.219568" lon="13.072078">
        <ele>164.32511</ele>
      </trkpt>
      <trkpt lat="46.219697" lon="13.073473">
        <ele>164.14855</ele>
      </trkpt>
      <trkpt lat="46.219504" lon="13.074653">
        <ele>164.70721</ele>
      </trkpt>
      <trkpt lat="46.219611" lon="13.074911">
        <ele>164.61774</ele>
      </trkpt>
      <trkpt lat="46.221178" lon="13.076391">
        <ele>164.09143</ele>
      </trkpt>
      <trkpt lat="46.220512" lon="13.077807">
        <ele>165.62414</ele>
      </trkpt>
      <trkpt lat="46.218152" lon="13.081069">
        <ele>164.89691</ele>
      </trkpt>
      <trkpt lat="46.217787" lon="13.082421">
        <ele>165.05473</ele>
      </trkpt>
      <trkpt lat="46.216242" lon="13.081412">
        <ele>164.54637</ele>
      </trkpt>
      <trkpt lat="46.216199" lon="13.081906">
        <ele>164.25504</ele>
      </trkpt>
      <trkpt lat="46.216371" lon="13.082871">
        <ele>164.23301</ele>
      </trkpt>
      <trkpt lat="46.21635" lon="13.083322">
        <ele>164.2257</ele>
      </trkpt>
      <trkpt lat="46.215341" lon="13.085511">
        <ele>163.83833</ele>
      </trkpt>
      <trkpt lat="46.214976" lon="13.087163">
        <ele>163.45393</ele>
      </trkpt>
      <trkpt lat="46.214612" lon="13.089974">
        <ele>163.45344</ele>
      </trkpt>
      <trkpt lat="46.215041" lon="13.090038">
        <ele>164.62754</ele>
      </trkpt>
      <trkpt lat="46.215577" lon="13.089781">
        <ele>164.10637</ele>
      </trkpt>
      <trkpt lat="46.215856" lon="13.089952">
        <ele>164.86453</ele>
      </trkpt>
      <trkpt lat="46.215599" lon="13.089995">
        <ele>165.85646</ele>
      </trkpt>
      <trkpt lat="46.214955" lon="13.092999">
        <ele>165.63295</ele>
      </trkpt>
      <trkpt lat="46.215084" lon="13.097248">
        <ele>165.59768</ele>
      </trkpt>
      <trkpt lat="46.214976" lon="13.099823">
        <ele>166.21035</ele>
      </trkpt>
      <trkpt lat="46.215062" lon="13.101904">
        <ele>166.97362</ele>
        <name>46.215062,13.101904</name>
        <extensions>
          <oa:mapZoom>10</oa:mapZoom>
        </extensions>
      </trkpt>
      <trkpt lat="46.214955" lon="13.102162">
        <ele>167.30609</ele>
      </trkpt>
      <trkpt lat="46.213088" lon="13.101432">
        <ele>165.78829</ele>
      </trkpt>
      <trkpt lat="46.212702" lon="13.101604">
        <ele>166.4019</ele>
      </trkpt>
      <trkpt lat="46.212101" lon="13.102505">
        <ele>165.80112</ele>
      </trkpt>
      <trkpt lat="46.210341" lon="13.101368">
        <ele>165.87608</ele>
      </trkpt>
      <trkpt lat="46.208539" lon="13.105509">
        <ele>164.96239</ele>
      </trkpt>
      <trkpt lat="46.207917" lon="13.105338">
        <ele>163.43425</ele>
      </trkpt>
      <trkpt lat="46.207702" lon="13.105724">
        <ele>164.39739</ele>
      </trkpt>
      <trkpt lat="46.207293" lon="13.105803">
        <ele>166.03047</ele>
      </trkpt>
      <trkpt lat="46.207573" lon="13.107483">
        <ele>171.35016</ele>
      </trkpt>
      <trkpt lat="46.207101" lon="13.107462">
        <ele>171.16656</ele>
      </trkpt>
      <trkpt lat="46.206887" lon="13.108041">
        <ele>174.39723</ele>
      </trkpt>
      <trkpt lat="46.206908" lon="13.108256">
        <ele>174.5646</ele>
      </trkpt>
      <trkpt lat="46.206415" lon="13.10847">
        <ele>175.02148</ele>
      </trkpt>
      <trkpt lat="46.206586" lon="13.109608">
        <ele>178.01612</ele>
      </trkpt>
      <trkpt lat="46.205192" lon="13.109822">
        <ele>175.56751</ele>
      </trkpt>
      <trkpt lat="46.204891" lon="13.109629">
        <ele>174.3355</ele>
      </trkpt>
      <trkpt lat="46.204505" lon="13.109887">
        <ele>174.6004</ele>
      </trkpt>
      <trkpt lat="46.204462" lon="13.110595">
        <ele>176.50808</ele>
      </trkpt>
      <trkpt lat="46.203926" lon="13.112848">
        <ele>176.48875</ele>
      </trkpt>
      <trkpt lat="46.203754" lon="13.116427">
        <ele>177.07244</ele>
      </trkpt>
      <trkpt lat="46.202424" lon="13.116689">
        <ele>175.89733</ele>
      </trkpt>
      <trkpt lat="46.201823" lon="13.117247">
        <ele>175.521</ele>
      </trkpt>
      <trkpt lat="46.201565" lon="13.116968">
        <ele>175.22888</ele>
      </trkpt>
      <trkpt lat="46.201458" lon="13.117203">
        <ele>175.53887</ele>
      </trkpt>
      <trkpt lat="46.201265" lon="13.117182">
        <ele>175.7271</ele>
      </trkpt>
      <trkpt lat="46.2009" lon="13.11744">
        <ele>176.19253</ele>
      </trkpt>
      <trkpt lat="46.200836" lon="13.119628">
        <ele>176.72096</ele>
      </trkpt>
      <trkpt lat="46.202295" lon="13.121345">
        <ele>174.33624</ele>
      </trkpt>
      <trkpt lat="46.204011" lon="13.122439">
        <ele>177.23309</ele>
      </trkpt>
      <trkpt lat="46.203775" lon="13.122783">
        <ele>176.93057</ele>
      </trkpt>
      <trkpt lat="46.203818" lon="13.123834">
        <ele>178.20261</ele>
      </trkpt>
      <trkpt lat="46.203518" lon="13.124585">
        <ele>178.51282</ele>
      </trkpt>
      <trkpt lat="46.203411" lon="13.125336">
        <ele>179.71827</ele>
      </trkpt>
      <trkpt lat="46.202252" lon="13.127053">
        <ele>178.35881</ele>
      </trkpt>
      <trkpt lat="46.201522" lon="13.128748">
        <ele>177.80698</ele>
      </trkpt>
      <trkpt lat="46.200385" lon="13.129628">
        <ele>176.53822</ele>
      </trkpt>
      <trkpt lat="46.197746" lon="13.130422">
        <ele>171.09975</ele>
      </trkpt>
      <trkpt lat="46.197381" lon="13.130786">
        <ele>171.0301</ele>
      </trkpt>
      <trkpt lat="46.19693" lon="13.13261">
        <ele>171.72284</ele>
      </trkpt>
      <trkpt lat="46.196972" lon="13.132486">
        <ele>171.50416</ele>
      </trkpt>
      <trkpt lat="46.195278" lon="13.134563">
        <ele>172.42035</ele>
      </trkpt>
      <trkpt lat="46.194248" lon="13.135121">
        <ele>173.43627</ele>
      </trkpt>
      <trkpt lat="46.193411" lon="13.135271">
        <ele>175.07103</ele>
      </trkpt>
      <trkpt lat="46.191652" lon="13.137138">
        <ele>175.40977</ele>
      </trkpt>
      <trkpt lat="46.190214" lon="13.138189">
        <ele>177.26454</ele>
      </trkpt>
      <trkpt lat="46.189678" lon="13.139026">
        <ele>178.95137</ele>
      </trkpt>
      <trkpt lat="46.188197" lon="13.140013">
        <ele>179.40314</ele>
      </trkpt>
      <trkpt lat="46.187747" lon="13.140013">
        <ele>178.77986</ele>
      </trkpt>
      <trkpt lat="46.18706" lon="13.139713">
        <ele>179.42013</ele>
      </trkpt>
      <trkpt lat="46.186738" lon="13.139799">
        <ele>178.13519</ele>
      </trkpt>
      <trkpt lat="46.186502" lon="13.14055">
        <ele>177.2676</ele>
      </trkpt>
      <trkpt lat="46.186566" lon="13.141558">
        <ele>178.56614</ele>
      </trkpt>
      <trkpt lat="46.186459" lon="13.142717">
        <ele>185.18006</ele>
      </trkpt>
      <trkpt lat="46.185172" lon="13.14321">
        <ele>180.32679</ele>
      </trkpt>
      <trkpt lat="46.181567" lon="13.145914">
        <ele>166.13649</ele>
      </trkpt>
      <trkpt lat="46.181245" lon="13.148167">
        <ele>171.63664</ele>
      </trkpt>
      <trkpt lat="46.180494" lon="13.149519">
        <ele>180.15261</ele>
      </trkpt>
      <trkpt lat="46.180494" lon="13.149991">
        <ele>180.51528</ele>
      </trkpt>
      <trkpt lat="46.180816" lon="13.150034">
        <ele>183.05379</ele>
        <name>46.180816,13.150034</name>
        <extensions>
          <oa:mapZoom>10</oa:mapZoom>
        </extensions>
      </trkpt>
      <trkpt lat="46.181159" lon="13.150291">
        <ele>186.95757</ele>
      </trkpt>
      <trkpt lat="46.181695" lon="13.150356">
        <ele>187.48857</ele>
      </trkpt>
      <trkpt lat="46.18221" lon="13.150892">
        <ele>183.11004</ele>
      </trkpt>
      <trkpt lat="46.182361" lon="13.151343">
        <ele>183.35969</ele>
      </trkpt>
      <trkpt lat="46.182425" lon="13.152759">
        <ele>183.74091</ele>
      </trkpt>
      <trkpt lat="46.182339" lon="13.154068">
        <ele>191.12915</ele>
      </trkpt>
      <trkpt lat="46.182725" lon="13.155549">
        <ele>192.92181</ele>
      </trkpt>
      <trkpt lat="46.18176" lon="13.157651">
        <ele>187.32713</ele>
      </trkpt>
      <trkpt lat="46.182489" lon="13.15866">
        <ele>186.63574</ele>
      </trkpt>
      <trkpt lat="46.182833" lon="13.159454">
        <ele>187.23598</ele>
      </trkpt>
      <trkpt lat="46.182897" lon="13.161364">
        <ele>195.65911</ele>
      </trkpt>
      <trkpt lat="46.183112" lon="13.162179">
        <ele>200.4519</ele>
        <name>46.183112,13.162179</name>
        <extensions>
          <oa:mapZoom>10</oa:mapZoom>
        </extensions>
      </trkpt>
      <trkpt lat="46.183155" lon="13.16263">
        <ele>201.81944</ele>
      </trkpt>
      <trkpt lat="46.182382" lon="13.162866">
        <ele>196.13869</ele>
      </trkpt>
      <trkpt lat="46.180837" lon="13.162909">
        <ele>187.02164</ele>
      </trkpt>
      <trkpt lat="46.179163" lon="13.163252">
        <ele>178.70718</ele>
      </trkpt>
      <trkpt lat="46.179035" lon="13.164539">
        <ele>177.41632</ele>
      </trkpt>
      <trkpt lat="46.17897" lon="13.164775">
        <ele>176.87831</ele>
      </trkpt>
      <trkpt lat="46.178799" lon="13.164883">
        <ele>176.63701</ele>
      </trkpt>
      <trkpt lat="46.177211" lon="13.164883">
        <ele>175.64635</ele>
      </trkpt>
      <trkpt lat="46.175859" lon="13.165376">
        <ele>173.59933</ele>
      </trkpt>
      <trkpt lat="46.174572" lon="13.165591">
        <ele>171.64637</ele>
      </trkpt>
      <trkpt lat="46.17234" lon="13.165205">
        <ele>162.07271</ele>
      </trkpt>
      <trkpt lat="46.171503" lon="13.165419">
        <ele>160.19367</ele>
      </trkpt>
      <trkpt lat="46.171353" lon="13.165934">
        <ele>160.0222</ele>
      </trkpt>
      <trkpt lat="46.171267" lon="13.167479">
        <ele>159.44374</ele>
      </trkpt>
      <trkpt lat="46.170409" lon="13.169839">
        <ele>156.76085</ele>
      </trkpt>
      <trkpt lat="46.170344" lon="13.170569">
        <ele>156.1619</ele>
      </trkpt>
      <trkpt lat="46.17043" lon="13.173015">
        <ele>158.01888</ele>
      </trkpt>
      <trkpt lat="46.170924" lon="13.175805">
        <ele>159.12183</ele>
      </trkpt>
      <trkpt lat="46.169486" lon="13.175783">
        <ele>158.19732</ele>
      </trkpt>
      <trkpt lat="46.168799" lon="13.175204">
        <ele>158.35421</ele>
      </trkpt>
      <trkpt lat="46.167576" lon="13.173788">
        <ele>156.96584</ele>
      </trkpt>
      <trkpt lat="46.166761" lon="13.173509">
        <ele>162.07983</ele>
      </trkpt>
      <trkpt lat="46.165967" lon="13.173723">
        <ele>163.24804</ele>
      </trkpt>
      <trkpt lat="46.162341" lon="13.175826">
        <ele>183.03338</ele>
      </trkpt>
      <trkpt lat="46.160796" lon="13.178122">
        <ele>184.57142</ele>
      </trkpt>
      <trkpt lat="46.160238" lon="13.178508">
        <ele>187.38728</ele>
      </trkpt>
      <trkpt lat="46.159658" lon="13.178594">
        <ele>189.38132</ele>
      </trkpt>
      <trkpt lat="46.158199" lon="13.180075">
        <ele>198.52646</ele>
      </trkpt>
      <trkpt lat="46.157835" lon="13.18074">
        <ele>200.51266</ele>
      </trkpt>
      <trkpt lat="46.156075" lon="13.18222">
        <ele>196.57276</ele>
      </trkpt>
      <trkpt lat="46.156182" lon="13.182929">
        <ele>196.60742</ele>
      </trkpt>
      <trkpt lat="46.156182" lon="13.184474">
        <ele>195.13122</ele>
      </trkpt>
      <trkpt lat="46.156611" lon="13.185525">
        <ele>190.97748</ele>
      </trkpt>
      <trkpt lat="46.156096" lon="13.186061">
        <ele>190.802</ele>
      </trkpt>
      <trkpt lat="46.155581" lon="13.188143">
        <ele>192.37186</ele>
      </trkpt>
      <trkpt lat="46.155152" lon="13.18913">
        <ele>194.33227</ele>
      </trkpt>
      <trkpt lat="46.154037" lon="13.190868">
        <ele>189.26003</ele>
      </trkpt>
      <trkpt lat="46.152556" lon="13.191082">
        <ele>188.45417</ele>
      </trkpt>
      <trkpt lat="46.151977" lon="13.190975">
        <ele>187.49776</ele>
      </trkpt>
      <trkpt lat="46.151783" lon="13.191104">
        <ele>190.37033</ele>
      </trkpt>
      <trkpt lat="46.151397" lon="13.191769">
        <ele>194.40699</ele>
      </trkpt>
      <trkpt lat="46.150775" lon="13.192306">
        <ele>196.08597</ele>
      </trkpt>
      <trkpt lat="46.150045" lon="13.192241">
        <ele>194.25531</ele>
      </trkpt>
      <trkpt lat="46.148844" lon="13.192413">
        <ele>191.40759</ele>
      </trkpt>
      <trkpt lat="46.147299" lon="13.194215">
        <ele>200.95717</ele>
      </trkpt>
      <trkpt lat="46.147428" lon="13.19546">
        <ele>199.3959</ele>
        <name>46.147428,13.195460</name>
        <extensions>
          <oa:mapZoom>10</oa:mapZoom>
        </extensions>
      </trkpt>
      <trkpt lat="46.147578" lon="13.196232">
        <ele>198.55515</ele>
      </trkpt>
      <trkpt lat="46.147707" lon="13.196275">
        <ele>198.60407</ele>
      </trkpt>
      <trkpt lat="46.147578" lon="13.19679">
        <ele>199.45388</ele>
      </trkpt>
      <trkpt lat="46.147535" lon="13.197799">
        <ele>203.90963</ele>
      </trkpt>
      <trkpt lat="46.147256" lon="13.198743">
        <ele>204.68795</ele>
      </trkpt>
      <trkpt lat="46.147428" lon="13.199365">
        <ele>205.46564</ele>
      </trkpt>
      <trkpt lat="46.147749" lon="13.201983">
        <ele>210.10393</ele>
      </trkpt>
      <trkpt lat="46.1482" lon="13.202841">
        <ele>210.82953</ele>
      </trkpt>
      <trkpt lat="46.148951" lon="13.203421">
        <ele>213.82024</ele>
      </trkpt>
      <trkpt lat="46.149509" lon="13.204386">
        <ele>204.45695</ele>
      </trkpt>
      <trkpt lat="46.149509" lon="13.206124">
        <ele>199.04095</ele>
      </trkpt>
      <trkpt lat="46.149616" lon="13.206382">
        <ele>198.18117</ele>
      </trkpt>
      <trkpt lat="46.149509" lon="13.207433">
        <ele>192.40557</ele>
      </trkpt>
      <trkpt lat="46.148844" lon="13.20724">
        <ele>190.60005</ele>
      </trkpt>
      <trkpt lat="46.147771" lon="13.206468">
        <ele>187.34799</ele>
      </trkpt>
      <trkpt lat="46.147041" lon="13.206146">
        <ele>184.94802</ele>
      </trkpt>
      <trkpt lat="46.146934" lon="13.206789">
        <ele>185.879</ele>
      </trkpt>
      <trkpt lat="46.146677" lon="13.207412">
        <ele>187.40502</ele>
      </trkpt>
      <trkpt lat="46.147031" lon="13.20774">
        <ele>187.61669</ele>
      </trkpt>
      <trkpt lat="46.147135" lon="13.208067">
        <ele>187.20247</ele>
      </trkpt>
      <trkpt lat="46.146959" lon="13.209182">
        <ele>188.11287</ele>
      </trkpt>
      <trkpt lat="46.147094" lon="13.209384">
        <ele>187.78074</ele>
      </trkpt>
      <trkpt lat="46.148293" lon="13.209957">
        <ele>191.03279</ele>
      </trkpt>
      <trkpt lat="46.14899" lon="13.210535">
        <ele>189.86635</ele>
      </trkpt>
      <trkpt lat="46.150156" lon="13.210791">
        <ele>190.53107</ele>
      </trkpt>
      <trkpt lat="46.152321" lon="13.210916">
        <ele>193.21673</ele>
      </trkpt>
      <trkpt lat="46.152384" lon="13.214579">
        <ele>184.48673</ele>
        <name>46.152384,13.214579</name>
        <extensions>
          <oa:mapZoom>10</oa:mapZoom>
        </extensions>
      </trkpt>
      <trkpt lat="46.152406" lon="13.215115">
        <ele>183.51146</ele>
      </trkpt>
      <trkpt lat="46.152148" lon="13.215394">
        <ele>183.80844</ele>
      </trkpt>
      <trkpt lat="46.149209" lon="13.215437">
        <ele>181.04189</ele>
      </trkpt>
      <trkpt lat="46.149595" lon="13.215437">
        <ele>182.41584</ele>
      </trkpt>
      <trkpt lat="46.146376" lon="13.215137">
        <ele>177.10608</ele>
      </trkpt>
      <trkpt lat="46.142428" lon="13.215137">
        <ele>169.6796</ele>
      </trkpt>
      <trkpt lat="46.139832" lon="13.215673">
        <ele>165.91683</ele>
      </trkpt>
      <trkpt lat="46.138716" lon="13.215694">
        <ele>165.62048</ele>
      </trkpt>
      <trkpt lat="46.138158" lon="13.216338">
        <ele>165.60455</ele>
      </trkpt>
      <trkpt lat="46.137235" lon="13.216681">
        <ele>163.9225</ele>
      </trkpt>
      <trkpt lat="46.131291" lon="13.215845">
        <ele>158.8755</ele>
      </trkpt>
      <trkpt lat="46.129403" lon="13.214965">
        <ele>155.05309</ele>
      </trkpt>
      <trkpt lat="46.129253" lon="13.211532">
        <ele>161.00716</ele>
      </trkpt>
      <trkpt lat="46.128631" lon="13.210952">
        <ele>159.03654</ele>
      </trkpt>
      <trkpt lat="46.128287" lon="13.210845">
        <ele>157.35842</ele>
      </trkpt>
      <trkpt lat="46.128073" lon="13.210845">
        <ele>154.77277</ele>
      </trkpt>
      <trkpt lat="46.127622" lon="13.211274">
        <ele>153.33223</ele>
      </trkpt>
      <trkpt lat="46.126678" lon="13.209729">
        <ele>154.16459</ele>
      </trkpt>
      <trkpt lat="46.125777" lon="13.208549">
        <ele>153.22552</ele>
      </trkpt>
      <trkpt lat="46.123674" lon="13.209128">
        <ele>150.85063</ele>
      </trkpt>
      <trkpt lat="46.122022" lon="13.210995">
        <ele>148.77298</ele>
      </trkpt>
      <trkpt lat="46.120412" lon="13.211424">
        <ele>144.44624</ele>
      </trkpt>
      <trkpt lat="46.120412" lon="13.211639">
        <ele>146.00224</ele>
      </trkpt>
      <trkpt lat="46.12067" lon="13.212111">
        <ele>147.00494</ele>
      </trkpt>
      <trkpt lat="46.120542" lon="13.212284">
        <ele>146.43375</ele>
      </trkpt>
      <trkpt lat="46.119618" lon="13.21151">
        <ele>143.65878</ele>
      </trkpt>
      <trkpt lat="46.117902" lon="13.210888">
        <ele>140.29914</ele>
      </trkpt>
      <trkpt lat="46.113503" lon="13.211167">
        <ele>139.04503</ele>
      </trkpt>
      <trkpt lat="46.112623" lon="13.211832">
        <ele>138.63972</ele>
      </trkpt>
      <trkpt lat="46.11243" lon="13.212326">
        <ele>138.86209</ele>
      </trkpt>
      <trkpt lat="46.112237" lon="13.21209">
        <ele>138.44545</ele>
      </trkpt>
      <trkpt lat="46.111851" lon="13.212411">
        <ele>139.8481</ele>
      </trkpt>
      <trkpt lat="46.111143" lon="13.21254">
        <ele>137.62104</ele>
      </trkpt>
      <trkpt lat="46.10908" lon="13.213518">
        <ele>136.17651</ele>
      </trkpt>
      <trkpt lat="46.10904" lon="13.213377">
        <ele>136.23788</ele>
      </trkpt>
      <trkpt lat="46.108932" lon="13.21342">
        <ele>136.04589</ele>
      </trkpt>
      <trkpt lat="46.108932" lon="13.213549">
        <ele>136.1192</ele>
      </trkpt>
      <trkpt lat="46.104319" lon="13.216102">
        <ele>131.79359</ele>
      </trkpt>
      <trkpt lat="46.101573" lon="13.218033">
        <ele>129.84737</ele>
      </trkpt>
      <trkpt lat="46.101058" lon="13.216231">
        <ele>129.41017</ele>
      </trkpt>
      <trkpt lat="46.101079" lon="13.214579">
        <ele>129.77209</ele>
      </trkpt>
      <trkpt lat="46.101165" lon="13.214257">
        <ele>129.63364</ele>
      </trkpt>
      <trkpt lat="46.101079" lon="13.210716">
        <ele>130.37879</ele>
        <name>46.101079,13.210716</name>
        <extensions>
          <oa:mapZoom>10</oa:mapZoom>
        </extensions>
      </trkpt>
      <trkpt lat="46.101143" lon="13.21033">
        <ele>130.55918</ele>
      </trkpt>
      <trkpt lat="46.101058" lon="13.209214">
        <ele>130.17846</ele>
      </trkpt>
      <trkpt lat="46.101143" lon="13.209107">
        <ele>130.13147</ele>
      </trkpt>
      <trkpt lat="46.101251" lon="13.205953">
        <ele>126.90437</ele>
      </trkpt>
      <trkpt lat="46.101444" lon="13.20533">
        <ele>126.91684</ele>
      </trkpt>
      <trkpt lat="46.10183" lon="13.204966">
        <ele>127.22462</ele>
      </trkpt>
      <trkpt lat="46.101551" lon="13.204365">
        <ele>127.46377</ele>
      </trkpt>
      <trkpt lat="46.101766" lon="13.202906">
        <ele>126.83228</ele>
      </trkpt>
      <trkpt lat="46.100414" lon="13.202648">
        <ele>126.05229</ele>
      </trkpt>
      <trkpt lat="46.099706" lon="13.202798">
        <ele>125.0651</ele>
      </trkpt>
      <trkpt lat="46.098547" lon="13.202434">
        <ele>125.33752</ele>
      </trkpt>
      <trkpt lat="46.09756" lon="13.201554">
        <ele>125.13881</ele>
      </trkpt>
      <trkpt lat="46.096551" lon="13.201447">
        <ele>124.73074</ele>
      </trkpt>
      <trkpt lat="46.096337" lon="13.201103">
        <ele>124.6936</ele>
      </trkpt>
      <trkpt lat="46.095586" lon="13.200717">
        <ele>124.30162</ele>
      </trkpt>
      <trkpt lat="46.095414" lon="13.200331">
        <ele>123.93753</ele>
      </trkpt>
      <trkpt lat="46.09359" lon="13.199794">
        <ele>123.85556</ele>
      </trkpt>
      <trkpt lat="46.093462" lon="13.199451">
        <ele>122.93939</ele>
      </trkpt>
      <trkpt lat="46.093719" lon="13.198764">
        <ele>122.3376</ele>
      </trkpt>
      <trkpt lat="46.093805" lon="13.197005">
        <ele>123.58147</ele>
      </trkpt>
      <trkpt lat="46.091444" lon="13.195932">
        <ele>121.1736</ele>
      </trkpt>
      <trkpt lat="46.091123" lon="13.195975">
        <ele>120.1867</ele>
      </trkpt>
      <trkpt lat="46.091509" lon="13.194408">
        <ele>118.26664</ele>
      </trkpt>
      <trkpt lat="46.091766" lon="13.193915">
        <ele>117.75118</ele>
        <name>46.091766,13.193915</name>
        <extensions>
          <oa:mapZoom>10</oa:mapZoom>
        </extensions>
      </trkpt>
      <trkpt lat="46.091938" lon="13.193808">
        <ele>117.62264</ele>
      </trkpt>
      <trkpt lat="46.091938" lon="13.193572">
        <ele>117.9661</ele>
      </trkpt>
      <trkpt lat="46.090007" lon="13.192542">
        <ele>118.95418</ele>
      </trkpt>
      <trkpt lat="46.089771" lon="13.192563">
        <ele>118.78903</ele>
      </trkpt>
      <trkpt lat="46.089728" lon="13.192863">
        <ele>118.97093</ele>
      </trkpt>
      <trkpt lat="46.088312" lon="13.191168">
        <ele>113.53237</ele>
      </trkpt>
      <trkpt lat="46.087904" lon="13.191233">
        <ele>115.08608</ele>
      </trkpt>
      <trkpt lat="46.087432" lon="13.190954">
        <ele>117.76386</ele>
      </trkpt>
      <trkpt lat="46.086617" lon="13.190053">
        <ele>117.33812</ele>
      </trkpt>
      <trkpt lat="46.086509" lon="13.189516">
        <ele>116.75167</ele>
      </trkpt>
      <trkpt lat="46.085479" lon="13.188229">
        <ele>111.80818</ele>
        <name>46.085479,13.188229</name>
        <extensions>
          <oa:mapZoom>10</oa:mapZoom>
        </extensions>
      </trkpt>
      <trkpt lat="46.085136" lon="13.188272">
        <ele>112.32884</ele>
      </trkpt>
      <trkpt lat="46.084385" lon="13.189366">
        <ele>115.40561</ele>
      </trkpt>
      <trkpt lat="46.083269" lon="13.189323">
        <ele>114.38055</ele>
      </trkpt>
      <trkpt lat="46.083033" lon="13.192134">
        <ele>113.9742</ele>
      </trkpt>
      <trkpt lat="46.083827" lon="13.192391">
        <ele>117.10743</ele>
      </trkpt>
      <trkpt lat="46.084063" lon="13.192713">
        <ele>117.10164</ele>
      </trkpt>
      <trkpt lat="46.08357" lon="13.194237">
        <ele>116.13778</ele>
      </trkpt>
      <trkpt lat="46.083527" lon="13.195202">
        <ele>115.78823</ele>
      </trkpt>
      <trkpt lat="46.083312" lon="13.195524">
        <ele>115.12791</ele>
      </trkpt>
      <trkpt lat="46.08314" lon="13.196168">
        <ele>115.04234</ele>
      </trkpt>
      <trkpt lat="46.083248" lon="13.197327">
        <ele>114.66985</ele>
      </trkpt>
      <trkpt lat="46.083591" lon="13.197756">
        <ele>113.71079</ele>
      </trkpt>
      <trkpt lat="46.083548" lon="13.200331">
        <ele>117.12622</ele>
      </trkpt>
      <trkpt lat="46.083806" lon="13.201962">
        <ele>118.08942</ele>
      </trkpt>
      <trkpt lat="46.083763" lon="13.203356">
        <ele>118.08849</ele>
      </trkpt>
      <trkpt lat="46.083934" lon="13.203592">
        <ele>117.95763</ele>
      </trkpt>
      <trkpt lat="46.083419" lon="13.204322">
        <ele>118.30687</ele>
      </trkpt>
      <trkpt lat="46.082518" lon="13.204987">
        <ele>118.02764</ele>
      </trkpt>
      <trkpt lat="46.082089" lon="13.205094">
        <ele>117.07254</ele>
      </trkpt>
      <trkpt lat="46.08166" lon="13.204966">
        <ele>117.43814</ele>
      </trkpt>
      <trkpt lat="46.080737" lon="13.205588">
        <ele>117.12125</ele>
      </trkpt>
      <trkpt lat="46.080801" lon="13.20591">
        <ele>117.00451</ele>
      </trkpt>
      <trkpt lat="46.079085" lon="13.209064">
        <ele>115.81275</ele>
      </trkpt>
      <trkpt lat="46.078956" lon="13.209085">
        <ele>115.63324</ele>
      </trkpt>
      <trkpt lat="46.077777" lon="13.207774">
        <ele>115.60653</ele>
      </trkpt>
      <trkpt lat="46.076639" lon="13.209879">
        <ele>114.84971</ele>
      </trkpt>
      <trkpt lat="46.076467" lon="13.209665">
        <ele>114.80729</ele>
      </trkpt>
      <trkpt lat="46.07548" lon="13.210781">
        <ele>113.90197</ele>
      </trkpt>
      <trkpt lat="46.073699" lon="13.214514">
        <ele>113.35198</ele>
      </trkpt>
      <trkpt lat="46.073034" lon="13.214879">
        <ele>112.83413</ele>
      </trkpt>
      <trkpt lat="46.07254" lon="13.21593">
        <ele>111.82147</ele>
      </trkpt>
      <trkpt lat="46.072583" lon="13.216209">
        <ele>112.51926</ele>
      </trkpt>
      <trkpt lat="46.072304" lon="13.21681">
        <ele>112.81881</ele>
      </trkpt>
      <trkpt lat="46.072605" lon="13.217154">
        <ele>112.92049</ele>
      </trkpt>
      <trkpt lat="46.07254" lon="13.217432">
        <ele>112.88648</ele>
      </trkpt>
      <trkpt lat="46.070781" lon="13.221188">
        <ele>112.60578</ele>
      </trkpt>
      <trkpt lat="46.071618" lon="13.222003">
        <ele>113.42957</ele>
      </trkpt>
      <trkpt lat="46.072712" lon="13.224127">
        <ele>113.81334</ele>
      </trkpt>
      <trkpt lat="46.072347" lon="13.225029">
        <ele>113.29107</ele>
      </trkpt>
      <trkpt lat="46.070931" lon="13.227432">
        <ele>112.15682</ele>
      </trkpt>
      <trkpt lat="46.070545" lon="13.227968">
        <ele>111.96252</ele>
      </trkpt>
      <trkpt lat="46.070244" lon="13.228076">
        <ele>112.76605</ele>
      </trkpt>
      <trkpt lat="46.069965" lon="13.228612">
        <ele>112.65848</ele>
      </trkpt>
      <trkpt lat="46.070008" lon="13.228869">
        <ele>112.33502</ele>
      </trkpt>
      <trkpt lat="46.069558" lon="13.229277">
        <ele>111.80581</ele>
      </trkpt>
      <trkpt lat="46.067433" lon="13.230371">
        <ele>110.88261</ele>
      </trkpt>
      <trkpt lat="46.066449" lon="13.231291">
        <ele>110.4677</ele>
      </trkpt>
      <trkpt lat="46.064142" lon="13.232161">
        <ele>109.75618</ele>
      </trkpt>
      <trkpt lat="46.062547" lon="13.232258">
        <ele>108.49979</ele>
      </trkpt>
      <trkpt lat="46.061794" lon="13.232684">
        <ele>108.64415</ele>
      </trkpt>
      <trkpt lat="46.061726" lon="13.232968">
        <ele>108.61773</ele>
      </trkpt>
      <trkpt lat="46.061833" lon="13.233826">
        <ele>109.36209</ele>
      </trkpt>
      <trkpt lat="46.06297" lon="13.235629">
        <ele>109.69043</ele>
      </trkpt>
      <trkpt lat="46.063271" lon="13.235886">
        <ele>110.57814</ele>
        <name>46.063271,13.235886</name>
        <extensions>
          <oa:mapZoom>10</oa:mapZoom>
        </extensions>
      </trkpt>
    </trkseg>
  </trk>
</gpx>